<?xml version="1.0" encoding="UTF-8"?>
<kml xmlns="http://www.opengis.net/kml/2.2" xmlns:gx="http://www.google.com/kml/ext/2.2" xmlns:kml="http://www.opengis.net/kml/2.2" xmlns:atom="http://www.w3.org/2005/Atom">
<Document id="170_kzcoCLJRwk9YfNFw0wtuazdrzbQLt">
	<name>Farming Field Map</name>
	<visibility>0</visibility>
	<gx:CascadingStyle kml:id="__managed_style_00B8B3D2233F24B3329C_highlight">
		<Style>
			<IconStyle>
				<scale>1.2</scale>
				<Icon>
					<href>https://earth.google.com/earth/document/icon?color=1976d2&amp;id=2000&amp;scale=4</href>
				</Icon>
				<hotSpot x="64" y="128" xunits="pixels" yunits="insetPixels"/>
			</IconStyle>
			<LabelStyle>
			</LabelStyle>
			<LineStyle>
				<color>ff6abb66</color>
				<width>3</width>
			</LineStyle>
			<PolyStyle>
				<color>406abb66</color>
			</PolyStyle>
			<BalloonStyle>
			</BalloonStyle>
		</Style>
	</gx:CascadingStyle>
	<gx:CascadingStyle kml:id="__managed_style_00B8B3D2233F24B3329C_normal">
		<Style>
			<IconStyle>
				<Icon>
					<href>https://earth.google.com/earth/document/icon?color=1976d2&amp;id=2000&amp;scale=4</href>
				</Icon>
				<hotSpot x="64" y="128" xunits="pixels" yunits="insetPixels"/>
			</IconStyle>
			<LabelStyle>
			</LabelStyle>
			<LineStyle>
				<color>ff6abb66</color>
				<width>2</width>
			</LineStyle>
			<PolyStyle>
				<color>406abb66</color>
			</PolyStyle>
			<BalloonStyle>
			</BalloonStyle>
		</Style>
	</gx:CascadingStyle>
	<StyleMap id="__managed_style_13F27FA03E3F24B3329C">
		<Pair>
			<key>normal</key>
			<styleUrl>#__managed_style_13F27FA03E3F24B3329C_normal</styleUrl>
		</Pair>
		<Pair>
			<key>highlight</key>
			<styleUrl>#__managed_style_13F27FA03E3F24B3329C_highlight</styleUrl>
		</Pair>
	</StyleMap>
	<gx:CascadingStyle kml:id="__managed_style_036E44ACBB3F24B33299_highlight">
		<Style>
			<IconStyle>
				<scale>1.2</scale>
				<Icon>
					<href>https://earth.google.com/earth/document/icon?color=1976d2&amp;id=2000&amp;scale=4</href>
				</Icon>
				<hotSpot x="64" y="128" xunits="pixels" yunits="insetPixels"/>
			</IconStyle>
			<LabelStyle>
			</LabelStyle>
			<LineStyle>
				<color>ff6abb66</color>
				<width>3</width>
			</LineStyle>
			<PolyStyle>
				<color>406abb66</color>
			</PolyStyle>
			<BalloonStyle>
			</BalloonStyle>
		</Style>
	</gx:CascadingStyle>
	<gx:CascadingStyle kml:id="__managed_style_13F27FA03E3F24B3329C_normal">
		<Style>
			<IconStyle>
				<Icon>
					<href>https://earth.google.com/earth/document/icon?color=1976d2&amp;id=2000&amp;scale=4</href>
				</Icon>
				<hotSpot x="64" y="128" xunits="pixels" yunits="insetPixels"/>
			</IconStyle>
			<LabelStyle>
			</LabelStyle>
			<LineStyle>
				<color>ff58eeff</color>
				<width>2</width>
			</LineStyle>
			<PolyStyle>
				<color>4058eeff</color>
			</PolyStyle>
			<BalloonStyle>
			</BalloonStyle>
		</Style>
	</gx:CascadingStyle>
	<gx:CascadingStyle kml:id="__managed_style_036E44ACBB3F24B33299_normal">
		<Style>
			<IconStyle>
				<Icon>
					<href>https://earth.google.com/earth/document/icon?color=1976d2&amp;id=2000&amp;scale=4</href>
				</Icon>
				<hotSpot x="64" y="128" xunits="pixels" yunits="insetPixels"/>
			</IconStyle>
			<LabelStyle>
			</LabelStyle>
			<LineStyle>
				<color>ff6abb66</color>
				<width>2</width>
			</LineStyle>
			<PolyStyle>
				<color>406abb66</color>
			</PolyStyle>
			<BalloonStyle>
			</BalloonStyle>
		</Style>
	</gx:CascadingStyle>
	<StyleMap id="__managed_style_00B8B3D2233F24B3329C">
		<Pair>
			<key>normal</key>
			<styleUrl>#__managed_style_00B8B3D2233F24B3329C_normal</styleUrl>
		</Pair>
		<Pair>
			<key>highlight</key>
			<styleUrl>#__managed_style_00B8B3D2233F24B3329C_highlight</styleUrl>
		</Pair>
	</StyleMap>
	<StyleMap id="__managed_style_036E44ACBB3F24B33299">
		<Pair>
			<key>normal</key>
			<styleUrl>#__managed_style_036E44ACBB3F24B33299_normal</styleUrl>
		</Pair>
		<Pair>
			<key>highlight</key>
			<styleUrl>#__managed_style_036E44ACBB3F24B33299_highlight</styleUrl>
		</Pair>
	</StyleMap>
	<StyleMap id="__managed_style_0786DEA4BE3F24B33298">
		<Pair>
			<key>normal</key>
			<styleUrl>#__managed_style_0786DEA4BE3F24B33298_normal</styleUrl>
		</Pair>
		<Pair>
			<key>highlight</key>
			<styleUrl>#__managed_style_0786DEA4BE3F24B33298_highlight</styleUrl>
		</Pair>
	</StyleMap>
	<gx:CascadingStyle kml:id="__managed_style_0786DEA4BE3F24B33298_highlight">
		<Style>
			<IconStyle>
				<scale>1.2</scale>
				<Icon>
					<href>https://earth.google.com/earth/document/icon?color=1976d2&amp;id=2000&amp;scale=4</href>
				</Icon>
				<hotSpot x="64" y="128" xunits="pixels" yunits="insetPixels"/>
			</IconStyle>
			<LabelStyle>
			</LabelStyle>
			<LineStyle>
				<color>ff5053ef</color>
				<width>3</width>
			</LineStyle>
			<PolyStyle>
				<color>405053ef</color>
			</PolyStyle>
			<BalloonStyle>
			</BalloonStyle>
		</Style>
	</gx:CascadingStyle>
	<gx:CascadingStyle kml:id="__managed_style_13F27FA03E3F24B3329C_highlight">
		<Style>
			<IconStyle>
				<scale>1.2</scale>
				<Icon>
					<href>https://earth.google.com/earth/document/icon?color=1976d2&amp;id=2000&amp;scale=4</href>
				</Icon>
				<hotSpot x="64" y="128" xunits="pixels" yunits="insetPixels"/>
			</IconStyle>
			<LabelStyle>
			</LabelStyle>
			<LineStyle>
				<color>ff58eeff</color>
				<width>3</width>
			</LineStyle>
			<PolyStyle>
				<color>4058eeff</color>
			</PolyStyle>
			<BalloonStyle>
			</BalloonStyle>
		</Style>
	</gx:CascadingStyle>
	<gx:CascadingStyle kml:id="__managed_style_0786DEA4BE3F24B33298_normal">
		<Style>
			<IconStyle>
				<Icon>
					<href>https://earth.google.com/earth/document/icon?color=1976d2&amp;id=2000&amp;scale=4</href>
				</Icon>
				<hotSpot x="64" y="128" xunits="pixels" yunits="insetPixels"/>
			</IconStyle>
			<LabelStyle>
			</LabelStyle>
			<LineStyle>
				<color>ff5053ef</color>
				<width>2</width>
			</LineStyle>
			<PolyStyle>
				<color>405053ef</color>
			</PolyStyle>
			<BalloonStyle>
			</BalloonStyle>
		</Style>
	</gx:CascadingStyle>
	<StyleMap id="__managed_style_1476ABF7B73F24B33298">
		<Pair>
			<key>normal</key>
			<styleUrl>#__managed_style_1476ABF7B73F24B33298_normal</styleUrl>
		</Pair>
		<Pair>
			<key>highlight</key>
			<styleUrl>#__managed_style_1476ABF7B73F24B33298_highlight</styleUrl>
		</Pair>
	</StyleMap>
	<gx:CascadingStyle kml:id="__managed_style_1476ABF7B73F24B33298_highlight">
		<Style>
			<IconStyle>
				<scale>1.2</scale>
				<Icon>
					<href>https://earth.google.com/earth/document/icon?color=1976d2&amp;id=2000&amp;scale=4</href>
				</Icon>
				<hotSpot x="64" y="128" xunits="pixels" yunits="insetPixels"/>
			</IconStyle>
			<LabelStyle>
			</LabelStyle>
			<LineStyle>
				<color>ff5053ef</color>
				<width>3</width>
			</LineStyle>
			<PolyStyle>
				<color>405053ef</color>
			</PolyStyle>
			<BalloonStyle>
			</BalloonStyle>
		</Style>
	</gx:CascadingStyle>
	<gx:CascadingStyle kml:id="__managed_style_1476ABF7B73F24B33298_normal">
		<Style>
			<IconStyle>
				<Icon>
					<href>https://earth.google.com/earth/document/icon?color=1976d2&amp;id=2000&amp;scale=4</href>
				</Icon>
				<hotSpot x="64" y="128" xunits="pixels" yunits="insetPixels"/>
			</IconStyle>
			<LabelStyle>
			</LabelStyle>
			<LineStyle>
				<color>ff5053ef</color>
				<width>2</width>
			</LineStyle>
			<PolyStyle>
				<color>405053ef</color>
			</PolyStyle>
			<BalloonStyle>
			</BalloonStyle>
		</Style>
	</gx:CascadingStyle>
	<Placemark id="0FDB78103A3EE3DBDC3B">
		<name>Field 1 - Johnston Block 1 - Kaweah Freestone Peach - 33 acres</name>
		<LookAt>
			<longitude>-120.7750866262361</longitude>
			<latitude>37.40920143468279</latitude>
			<altitude>40.51615582558954</altitude>
			<heading>1.199563343814899</heading>
			<tilt>0</tilt>
			<gx:fovy>35</gx:fovy>
			<range>1037.888541941793</range>
			<altitudeMode>absolute</altitudeMode>
		</LookAt>
		<styleUrl>#__managed_style_1476ABF7B73F24B33298</styleUrl>
		<Polygon>
			<outerBoundaryIs>
				<LinearRing>
					<coordinates>
						-120.7773642241613,37.41040360148376,0 -120.7774588262209,37.40725631872299,0 -120.7730893897808,37.4072240273801,0 -120.7729614973434,37.41020648173712,0 -120.7730511104436,37.41036619620408,0 -120.7773642241613,37.41040360148376,0 
					</coordinates>
				</LinearRing>
			</outerBoundaryIs>
		</Polygon>
	</Placemark>
	<Placemark id="0CE2F2008D3EE3E0B228">
		<name>Field 2 - Johnston Block 2 - Zee Lady Freestone Peach - 18.5 acres</name>
		<LookAt>
			<longitude>-120.7752674305481</longitude>
			<latitude>37.4061414821109</latitude>
			<altitude>39.6627584929866</altitude>
			<heading>1.199563343682089</heading>
			<tilt>0</tilt>
			<gx:fovy>35</gx:fovy>
			<range>1038.74194115022</range>
			<altitudeMode>absolute</altitudeMode>
		</LookAt>
		<styleUrl>#__managed_style_0786DEA4BE3F24B33298</styleUrl>
		<Polygon>
			<outerBoundaryIs>
				<LinearRing>
					<coordinates>
						-120.7774600089149,37.40716444490492,0 -120.7775164518144,37.40518911870875,0 -120.7771707680162,37.40512846743876,0 -120.7755956710842,37.40509653009134,0 -120.7751395834078,37.40508350150814,0 -120.7741154538287,37.40505207678186,0 -120.7740879320429,37.40539958521321,0 -120.7739578282118,37.40553566372317,0 -120.773125919115,37.40555386634091,0 -120.7730834223982,37.40715174990564,0 -120.7774600089149,37.40716444490492,0 
					</coordinates>
				</LinearRing>
			</outerBoundaryIs>
		</Polygon>
	</Placemark>
	<Placemark id="092CDA25613EE5B4F7CB">
		<name>Field 3 - Johnston Block 3A - Zee Lady Freestone Peach - 18.5 acres</name>
		<LookAt>
			<longitude>-120.7719866054555</longitude>
			<latitude>37.40680018782036</latitude>
			<altitude>40.71452308509386</altitude>
			<heading>1.199563343635652</heading>
			<tilt>0</tilt>
			<gx:fovy>35</gx:fovy>
			<range>1037.690141691273</range>
			<altitudeMode>absolute</altitudeMode>
		</LookAt>
		<styleUrl>#__managed_style_0786DEA4BE3F24B33298</styleUrl>
		<Polygon>
			<outerBoundaryIs>
				<LinearRing>
					<coordinates>
						-120.7707515480407,37.40850094117642,0 -120.7729901810447,37.40852060342349,0 -120.773069146482,37.40514190313559,0 -120.7728893809373,37.40509578557229,0 -120.7705558164958,37.40507779422353,0 -120.7705086222073,37.40852828679454,0 -120.7707515480407,37.40850094117642,0 
					</coordinates>
				</LinearRing>
			</outerBoundaryIs>
		</Polygon>
	</Placemark>
	<Placemark id="0E78DAEB3C3EE5B66970">
		<name>Field 4 - Johnston Block 3B - Angelus Freestone Peach - 18.5 acres</name>
		<LookAt>
			<longitude>-120.7708436863307</longitude>
			<latitude>37.40724009923018</latitude>
			<altitude>42.89220444470676</altitude>
			<heading>1.199563343380361</heading>
			<tilt>0</tilt>
			<gx:fovy>35</gx:fovy>
			<range>1232.976342671318</range>
			<altitudeMode>absolute</altitudeMode>
		</LookAt>
		<styleUrl>#__managed_style_0786DEA4BE3F24B33298</styleUrl>
		<Polygon>
			<outerBoundaryIs>
				<LinearRing>
					<coordinates>
						-120.7704799835933,37.4085082222033,0 -120.7705470299572,37.40510106813397,0 -120.7686714422769,37.4050530332243,0 -120.7685776268531,37.40848750039695,0 -120.7704799835933,37.4085082222033,0 
					</coordinates>
				</LinearRing>
			</outerBoundaryIs>
		</Polygon>
	</Placemark>
	<Placemark id="07471B5AF93EE5B862E7">
		<name>Field 5 - Johnston Block 4 - Parade Freestone Peach - 13 acres</name>
		<LookAt>
			<longitude>-120.7663336696472</longitude>
			<latitude>37.40675224462694</latitude>
			<altitude>41.1291883008455</altitude>
			<heading>1.199563342790302</heading>
			<tilt>0</tilt>
			<gx:fovy>35</gx:fovy>
			<range>894.2538992661869</range>
			<altitudeMode>absolute</altitudeMode>
		</LookAt>
		<styleUrl>#__managed_style_0786DEA4BE3F24B33298</styleUrl>
		<Polygon>
			<outerBoundaryIs>
				<LinearRing>
					<coordinates>
						-120.7683711744362,37.40666480664833,0 -120.7684273089563,37.40503362462687,0 -120.7659933362285,37.40500385481869,0 -120.764691935405,37.40647731537217,0 -120.7647342855366,37.4066538351988,0 -120.7683711744362,37.40666480664833,0 
					</coordinates>
				</LinearRing>
			</outerBoundaryIs>
		</Polygon>
	</Placemark>
	<Placemark id="09A6CDC7103EE5BA1904">
		<name>Field 6 - Johnston Block 5A - Tra Zee Freestone Peach - 15 acres</name>
		<LookAt>
			<longitude>-120.7683699214604</longitude>
			<latitude>37.40376482294198</latitude>
			<altitude>41.22731008207064</altitude>
			<heading>1.199563342287703</heading>
			<tilt>0</tilt>
			<gx:fovy>35</gx:fovy>
			<range>840.1993801705248</range>
			<altitudeMode>absolute</altitudeMode>
		</LookAt>
		<styleUrl>#__managed_style_0786DEA4BE3F24B33298</styleUrl>
		<Polygon>
			<outerBoundaryIs>
				<LinearRing>
					<coordinates>
						-120.7670088535289,37.40392389048751,0 -120.7669151792914,37.40423431534131,0 -120.7666588709994,37.40431117072369,0 -120.766253047581,37.4048367390366,0 -120.7695013075513,37.40487029009856,0 -120.7696217469792,37.40219019639378,0 -120.7670088535289,37.40392389048751,0 
					</coordinates>
				</LinearRing>
			</outerBoundaryIs>
		</Polygon>
	</Placemark>
	<Placemark id="00F036E0563EE5BB6A5F">
		<name>Field 7 - Johnston block 5B - Angelus Freestone Peach - 15 acres</name>
		<LookAt>
			<longitude>-120.7710586971917</longitude>
			<latitude>37.40364698308888</latitude>
			<altitude>41.7063442246579</altitude>
			<heading>1.199563342176492</heading>
			<tilt>0</tilt>
			<gx:fovy>35</gx:fovy>
			<range>839.7203455469573</range>
			<altitudeMode>absolute</altitudeMode>
		</LookAt>
		<styleUrl>#__managed_style_0786DEA4BE3F24B33298</styleUrl>
		<Polygon>
			<outerBoundaryIs>
				<LinearRing>
					<coordinates>
						-120.772775457098,37.40488833333547,0 -120.7706836174851,37.40254003259267,0 -120.7706615759357,37.40159441014536,0 -120.7696312859731,37.40214619108671,0 -120.7695863562087,37.40486423448109,0 -120.772775457098,37.40488833333547,0 
					</coordinates>
				</LinearRing>
			</outerBoundaryIs>
		</Polygon>
	</Placemark>
	<Placemark id="0C8D2F42533EE5BC3B8B">
		<name>Field 8 - Johnston Block 56/58 - Autumn Flame Freestone Peach - 30 acres</name>
		<LookAt>
			<longitude>-120.7729038992254</longitude>
			<latitude>37.40363090463334</latitude>
			<altitude>39.96707311826339</altitude>
			<heading>1.199563342092022</heading>
			<tilt>0</tilt>
			<gx:fovy>35</gx:fovy>
			<range>1265.203589345911</range>
			<altitudeMode>absolute</altitudeMode>
		</LookAt>
		<styleUrl>#__managed_style_0786DEA4BE3F24B33298</styleUrl>
		<Polygon>
			<outerBoundaryIs>
				<LinearRing>
					<coordinates>
						-120.7752781395586,37.40495673370786,0 -120.7753260825638,37.40142870111971,0 -120.7744577896318,37.40157873687607,0 -120.7735662920052,37.40159545618055,0 -120.7726488884812,37.40142655783476,0 -120.7716396244263,37.40143573691704,0 -120.7707152861212,37.40156401320835,0 -120.7707207343758,37.40252682773743,0 -120.7724429997524,37.40439692212339,0 -120.7730102587141,37.40444915476115,0 -120.7734348524751,37.40440715706657,0 -120.7734348814248,37.40490826061593,0 -120.7752781395586,37.40495673370786,0 
					</coordinates>
				</LinearRing>
			</outerBoundaryIs>
		</Polygon>
	</Placemark>
	<Placemark id="04AB06221C3EE654D2B6">
		<name>Field 9 - Johnston Block 36A - Carnival Freestone Peach - 18.5 acres</name>
		<LookAt>
			<longitude>-120.6545960388673</longitude>
			<latitude>37.36615308092534</latitude>
			<altitude>47.69872288711804</altitude>
			<heading>7.82840137149546e-11</heading>
			<tilt>0</tilt>
			<gx:fovy>35</gx:fovy>
			<range>991.9232831538829</range>
			<altitudeMode>absolute</altitudeMode>
		</LookAt>
		<styleUrl>#__managed_style_1476ABF7B73F24B33298</styleUrl>
		<Polygon>
			<outerBoundaryIs>
				<LinearRing>
					<coordinates>
						-120.6525368407216,37.3673447931334,0 -120.6530965928591,37.36735850108173,0 -120.6531104075042,37.3675754245315,0 -120.6569239430763,37.36756723620872,0 -120.6570268924396,37.36572649485285,0 -120.6526101917561,37.36571826057524,0 -120.6525368407216,37.3673447931334,0 
					</coordinates>
				</LinearRing>
			</outerBoundaryIs>
		</Polygon>
	</Placemark>
	<Placemark id="0F14D6ADC33EE656A66C">
		<name>Field 10 - Johnston Block 36B - Kaweah Freestone Peach - 18.5 acres</name>
		<LookAt>
			<longitude>-120.6561465421198</longitude>
			<latitude>37.36598455884684</latitude>
			<altitude>47.69879592541484</altitude>
			<heading>359.9999999999995</heading>
			<tilt>0</tilt>
			<gx:fovy>35</gx:fovy>
			<range>991.9231904434855</range>
			<altitudeMode>absolute</altitudeMode>
		</LookAt>
		<styleUrl>#__managed_style_0786DEA4BE3F24B33298</styleUrl>
		<Polygon>
			<outerBoundaryIs>
				<LinearRing>
					<coordinates>
						-120.6570214361037,37.36572316837858,0 -120.6570764851446,37.36414945172374,0 -120.6553143227895,37.3636295202637,0 -120.6549444225318,37.36362982075811,0 -120.6549478692193,37.36403939870173,0 -120.6540045096227,37.364028655785,0 -120.6530540090931,37.36407785664208,0 -120.653126343126,37.36430838810237,0 -120.6532579367767,37.36449814364691,0 -120.6532959416124,37.36504474061245,0 -120.6531369519657,37.36513456513748,0 -120.6527187938872,37.36518675636916,0 -120.6526118075677,37.36543403364272,0 -120.6526081900061,37.36570862234714,0 -120.6570214361037,37.36572316837858,0 
					</coordinates>
				</LinearRing>
			</outerBoundaryIs>
		</Polygon>
	</Placemark>
	<Placemark id="0CA9C2977D3EE6584D16">
		<name>Field 11 - Johnston Block 39 - Carnival Freestone Peach - 17 acres</name>
		<LookAt>
			<longitude>-120.6493790003144</longitude>
			<latitude>37.36972832847459</latitude>
			<altitude>48.99353777070023</altitude>
			<heading>0</heading>
			<tilt>0</tilt>
			<gx:fovy>35</gx:fovy>
			<range>990.6283970328514</range>
			<altitudeMode>absolute</altitudeMode>
		</LookAt>
		<styleUrl>#__managed_style_0786DEA4BE3F24B33298</styleUrl>
		<Polygon>
			<outerBoundaryIs>
				<LinearRing>
					<coordinates>
						-120.6486402064793,37.37078462454965,0 -120.6489785335947,37.37092729050593,0 -120.6495101804112,37.37097660553652,0 -120.6500898424026,37.37101174055705,0 -120.6500969830462,37.36763787343931,0 -120.6479581511652,37.36763431026664,0 -120.6479500772993,37.36942109917576,0 -120.6480703561354,37.36962678818971,0 -120.6479916712235,37.37027959602877,0 -120.6486402064793,37.37078462454965,0 
					</coordinates>
				</LinearRing>
			</outerBoundaryIs>
		</Polygon>
	</Placemark>
	<Placemark id="052679EA033EE65A7F87">
		<name>Field 12 - Johnston Block 40 - Fairtime Freestone Peach - 21 acres</name>
		<LookAt>
			<longitude>-120.6488113913891</longitude>
			<latitude>37.36633879223954</latitude>
			<altitude>50.4494210946485</altitude>
			<heading>0</heading>
			<tilt>0</tilt>
			<gx:fovy>35</gx:fovy>
			<range>989.1725656618655</range>
			<altitudeMode>absolute</altitudeMode>
		</LookAt>
		<styleUrl>#__managed_style_0786DEA4BE3F24B33298</styleUrl>
		<Polygon>
			<outerBoundaryIs>
				<LinearRing>
					<coordinates>
						-120.6495871638946,37.3665053779054,0 -120.6496009336206,37.36748606696482,0 -120.65015042638,37.36745992172538,0 -120.6501902337663,37.36519051547046,0 -120.6496769132511,37.36498474146969,0 -120.6489770712399,37.3644342336035,0 -120.6484841304275,37.36412997474016,0 -120.6479670090984,37.36412439113236,0 -120.6469437107446,37.36478244821883,0 -120.6469611239379,37.36575488904382,0 -120.6476846601248,37.3657548382841,0 -120.6476185107603,37.3675057475538,0 -120.6494630462512,37.36748330021897,0 -120.6495217971795,37.36694654172518,0 -120.6490839665358,37.36690270448847,0 -120.6490494362569,37.36674368492008,0 -120.6491043342945,37.3665195710234,0 -120.6495871638946,37.3665053779054,0 
					</coordinates>
				</LinearRing>
			</outerBoundaryIs>
		</Polygon>
	</Placemark>
	<Placemark id="0E9C1E38853EE65BE413">
		<name>Field 13 - Johnston Block 35 - Butte/Padre Almond - 17 acres</name>
		<LookAt>
			<longitude>-120.6513188261599</longitude>
			<latitude>37.3660382924495</latitude>
			<altitude>49.4220322454353</altitude>
			<heading>359.9999999999998</heading>
			<tilt>0</tilt>
			<gx:fovy>35</gx:fovy>
			<range>990.1998895758879</range>
			<altitudeMode>absolute</altitudeMode>
		</LookAt>
		<styleUrl>#__managed_style_036E44ACBB3F24B33299</styleUrl>
		<Polygon>
			<outerBoundaryIs>
				<LinearRing>
					<coordinates>
						-120.6503213033844,37.36753882846952,0 -120.6524900557222,37.36755399837968,0 -120.6524939490554,37.36406624173803,0 -120.6511017553281,37.36404738600211,0 -120.6510981231496,37.36524072034275,0 -120.6503498546155,37.36527090666535,0 -120.6503213033844,37.36753882846952,0 
					</coordinates>
				</LinearRing>
			</outerBoundaryIs>
		</Polygon>
	</Placemark>
	<Placemark id="0847F3629E3EE65D36B1">
		<name>Field 14 - Blue Lupin Block 17 - Nonpareil Almond - 21 acres</name>
		<LookAt>
			<longitude>-120.7770091919777</longitude>
			<latitude>37.40322992841239</latitude>
			<altitude>38.73064553720528</altitude>
			<heading>4.891112430424033e-12</heading>
			<tilt>0</tilt>
			<gx:fovy>35</gx:fovy>
			<range>1146.709781406244</range>
			<altitudeMode>absolute</altitudeMode>
		</LookAt>
		<styleUrl>#__managed_style_036E44ACBB3F24B33299</styleUrl>
		<Polygon>
			<outerBoundaryIs>
				<LinearRing>
					<coordinates>
						-120.7768932772395,37.40322040282986,0 -120.7775647954528,37.40326167958663,0 -120.7776197497555,37.40099181691296,0 -120.7773122173602,37.40077516788004,0 -120.7767540715295,37.40068705920007,0 -120.7761317392777,37.40090430373372,0 -120.775412138159,37.40140616223433,0 -120.7753392425093,37.40493728857744,0 -120.7775565196022,37.40492777678314,0 -120.7775288243434,37.40369986516001,0 -120.7768692909271,37.40367446379832,0 -120.7768932772395,37.40322040282986,0 
					</coordinates>
				</LinearRing>
			</outerBoundaryIs>
		</Polygon>
	</Placemark>
	<Placemark id="0FFA2235C53EE65E79D6">
		<name>Field 15 - Blue Lupin Block 18 - Zee Lady Freestone Peach - 19 acres</name>
		<LookAt>
			<longitude>-120.7770497055019</longitude>
			<latitude>37.40044421818828</latitude>
			<altitude>40.89919969993808</altitude>
			<heading>8.215887403676844e-13</heading>
			<tilt>0</tilt>
			<gx:fovy>35</gx:fovy>
			<range>868.2948025624503</range>
			<altitudeMode>absolute</altitudeMode>
		</LookAt>
		<styleUrl>#__managed_style_0786DEA4BE3F24B33298</styleUrl>
		<Polygon>
			<outerBoundaryIs>
				<LinearRing>
					<coordinates>
						-120.7776525364646,37.40054533805421,0 -120.7777116604884,37.39807993777359,0 -120.7774686157757,37.39807391899747,0 -120.7738301180471,37.39861219946714,0 -120.7738479453089,37.39991544106726,0 -120.7749547249175,37.39976874369223,0 -120.7749274187959,37.40116039986933,0 -120.7752844668382,37.40106414611721,0 -120.7757598232909,37.40077602978015,0 -120.7765618952797,37.40043689724236,0 -120.7770345722328,37.40044421806659,0 -120.7776525364646,37.40054533805421,0 
					</coordinates>
				</LinearRing>
			</outerBoundaryIs>
		</Polygon>
	</Placemark>
	<Placemark id="00A1ABD6033EE65F92EB">
		<name>Field 16 - Blue Lupin Block 19 - Butte/Padre Almond - 35 acres</name>
		<LookAt>
			<longitude>-120.7729001526415</longitude>
			<latitude>37.40093414808894</latitude>
			<altitude>42.63714568112876</altitude>
			<heading>359.9999999999868</heading>
			<tilt>0</tilt>
			<gx:fovy>35</gx:fovy>
			<range>866.5568534520571</range>
			<altitudeMode>absolute</altitudeMode>
		</LookAt>
		<styleUrl>#__managed_style_036E44ACBB3F24B33299</styleUrl>
		<Polygon>
			<outerBoundaryIs>
				<LinearRing>
					<coordinates>
						-120.7748624673375,37.40122733852807,0 -120.7749083243662,37.39983121561715,0 -120.7738128611296,37.39995886163589,0 -120.7737951890466,37.39874560066595,0 -120.7735861566363,37.39865328669789,0 -120.7687054911779,37.39932182538634,0 -120.768632333953,37.40231366789217,0 -120.7688443560427,37.40230835077086,0 -120.7698905892875,37.40160677911173,0 -120.7706244149871,37.40129034615278,0 -120.7721110304771,37.40105734447636,0 -120.7730150417712,37.40120314967267,0 -120.7736862262496,37.40132803372367,0 -120.7740521265179,37.40135687890884,0 -120.7748624673375,37.40122733852807,0 
					</coordinates>
				</LinearRing>
			</outerBoundaryIs>
		</Polygon>
	</Placemark>
	<Placemark id="05DFC2F52E3EE660AA88">
		<name>Field 17 - Blue Lupin Block 21 - Nonpareil/Monterey Almond - 23.5 acres</name>
		<LookAt>
			<longitude>-120.766599435612</longitude>
			<latitude>37.40161088772048</latitude>
			<altitude>41.1413368203107</altitude>
			<heading>0</heading>
			<tilt>0</tilt>
			<gx:fovy>35</gx:fovy>
			<range>1027.266248155211</range>
			<altitudeMode>absolute</altitudeMode>
		</LookAt>
		<styleUrl>#__managed_style_036E44ACBB3F24B33299</styleUrl>
		<Polygon>
			<outerBoundaryIs>
				<LinearRing>
					<coordinates>
						-120.7668534458494,37.40323081706239,0 -120.7672792502202,37.40324234882351,0 -120.7685962735591,37.40246654416539,0 -120.7686466415547,37.39925380509102,0 -120.7653504190316,37.39972306612433,0 -120.765356984362,37.40102493446057,0 -120.7654924028311,37.40117543721298,0 -120.7654328548576,37.40195485009125,0 -120.7662092635123,37.40194074232969,0 -120.7667283622097,37.40212866726876,0 -120.7669324450527,37.40239312676525,0 -120.7668534458494,37.40323081706239,0 
					</coordinates>
				</LinearRing>
			</outerBoundaryIs>
		</Polygon>
	</Placemark>
	<Placemark id="0F38F9A1CE3EE661C4C0">
		<name>Field 18 - Blue Lupin Block 10 - Fairtime Freestone Peach - 30 acres</name>
		<LookAt>
			<longitude>-120.7623826686616</longitude>
			<latitude>37.40218037922824</latitude>
			<altitude>45.11218186751071</altitude>
			<heading>0</heading>
			<tilt>0</tilt>
			<gx:fovy>35</gx:fovy>
			<range>1023.2988921176</range>
			<altitudeMode>absolute</altitudeMode>
		</LookAt>
		<styleUrl>#__managed_style_0786DEA4BE3F24B33298</styleUrl>
		<Polygon>
			<outerBoundaryIs>
				<LinearRing>
					<coordinates>
						-120.7652635667839,37.40151102674403,0 -120.7652695045518,37.39975667900551,0 -120.7620528325685,37.40016219170208,0 -120.7610737335014,37.40020512224303,0 -120.7596416056414,37.40039012362703,0 -120.7596456382098,37.40317272356682,0 -120.7619022666313,37.40319545271725,0 -120.7620057366647,37.40145701096157,0 -120.7652635667839,37.40151102674403,0 
					</coordinates>
				</LinearRing>
			</outerBoundaryIs>
		</Polygon>
	</Placemark>
	<Placemark id="054D46B0FB3EE662F96E">
		<name>Field 19 - Blue Lupin Block 8/9 - Butte/Padre Almond - 38.5 acres</name>
		<LookAt>
			<longitude>-120.7626744564158</longitude>
			<latitude>37.4030586102695</latitude>
			<altitude>46.44270718603363</altitude>
			<heading>0</heading>
			<tilt>0</tilt>
			<gx:fovy>35</gx:fovy>
			<range>1617.13077465829</range>
			<altitudeMode>absolute</altitudeMode>
		</LookAt>
		<styleUrl>#__managed_style_036E44ACBB3F24B33299</styleUrl>
		<Polygon>
			<outerBoundaryIs>
				<LinearRing>
					<coordinates>
						-120.759583282064,37.40481828424411,0 -120.7657486826136,37.40482277428909,0 -120.7666923688584,37.40376781604056,0 -120.7666129260751,37.40308996782239,0 -120.7661780670868,37.40291041964666,0 -120.7652965013339,37.4027129249743,0 -120.764477109918,37.40276680931949,0 -120.7645000563792,37.40159936426886,0 -120.7620641622426,37.40157722531573,0 -120.7619567819776,37.40319776794208,0 -120.7596557113747,37.40327861570658,0 -120.759583282064,37.40481828424411,0 
					</coordinates>
				</LinearRing>
			</outerBoundaryIs>
		</Polygon>
	</Placemark>
	<Placemark id="00537AD9813EE66502E1">
		<name>Field 20 - Fagundes Block 64A - Independence Almond - 20 acres</name>
		<LookAt>
			<longitude>-120.5926850929498</longitude>
			<latitude>37.43514959407313</latitude>
			<altitude>57.27422971154582</altitude>
			<heading>1.286184094689124e-20</heading>
			<tilt>0</tilt>
			<gx:fovy>35</gx:fovy>
			<range>1233.723310343485</range>
			<altitudeMode>absolute</altitudeMode>
		</LookAt>
		<styleUrl>#__managed_style_036E44ACBB3F24B33299</styleUrl>
		<Polygon>
			<outerBoundaryIs>
				<LinearRing>
					<coordinates>
						-120.5918762882041,37.43648525882291,0 -120.5932697640711,37.4364911237931,0 -120.5937090724861,37.43634186409912,0 -120.5941439669437,37.43636929890914,0 -120.5942314782532,37.43308257125052,0 -120.5933379954388,37.43302123336296,0 -120.5919316402181,37.43306754336435,0 -120.5918762882041,37.43648525882291,0 
					</coordinates>
				</LinearRing>
			</outerBoundaryIs>
		</Polygon>
	</Placemark>
	<Placemark id="0908E6EC353EE6664FE5">
		<name>Field 21 - Fagundes Block 64B - Late Ross Cling Peach - 20 acres</name>
		<LookAt>
			<longitude>-120.5901260249227</longitude>
			<latitude>37.43504732504075</latitude>
			<altitude>55.99189421954274</altitude>
			<heading>359.9999999998733</heading>
			<tilt>0</tilt>
			<gx:fovy>35</gx:fovy>
			<range>1347.916653787543</range>
			<altitudeMode>absolute</altitudeMode>
		</LookAt>
		<styleUrl>#__managed_style_13F27FA03E3F24B3329C</styleUrl>
		<Polygon>
			<outerBoundaryIs>
				<LinearRing>
					<coordinates>
						-120.5918084841752,37.43309932051705,0 -120.5894354349434,37.43308884600511,0 -120.5894121333754,37.43477507976373,0 -120.5894493570178,37.43648756905141,0 -120.5917789147502,37.4365200793,0 -120.5918084841752,37.43309932051705,0 
					</coordinates>
				</LinearRing>
			</outerBoundaryIs>
		</Polygon>
	</Placemark>
	<Placemark id="097C65332D3EE6673703">
		<name>Field 23 - Fagundes Block 65B - Klamath Cling Peach - 14 acres</name>
		<LookAt>
			<longitude>-120.5877331287737</longitude>
			<latitude>37.4350845754408</latitude>
			<altitude>60.47123762129345</altitude>
			<heading>2.231898635759582e-11</heading>
			<tilt>0</tilt>
			<gx:fovy>35</gx:fovy>
			<range>1343.437350935274</range>
			<altitudeMode>absolute</altitudeMode>
		</LookAt>
		<styleUrl>#__managed_style_13F27FA03E3F24B3329C</styleUrl>
		<Polygon>
			<outerBoundaryIs>
				<LinearRing>
					<coordinates>
						-120.5893840029044,37.43472661883266,0 -120.5893790935554,37.4330367122031,0 -120.5865795889962,37.43300866932452,0 -120.5862858094034,37.43325110933441,0 -120.5861829671811,37.43473500557415,0 -120.5893840029044,37.43472661883266,0 
					</coordinates>
				</LinearRing>
			</outerBoundaryIs>
		</Polygon>
	</Placemark>
	<Placemark id="0928331F423EE668257E">
		<name>Field 22 - Fagundes Block 65A - Late Ross Cling Peach - 13 acres</name>
		<LookAt>
			<longitude>-120.5877331287737</longitude>
			<latitude>37.4350845754408</latitude>
			<altitude>60.47123762129345</altitude>
			<heading>2.231898635759582e-11</heading>
			<tilt>0</tilt>
			<gx:fovy>35</gx:fovy>
			<range>1343.437350935274</range>
			<altitudeMode>absolute</altitudeMode>
		</LookAt>
		<styleUrl>#__managed_style_13F27FA03E3F24B3329C</styleUrl>
		<Polygon>
			<outerBoundaryIs>
				<LinearRing>
					<coordinates>
						-120.5862672646496,37.43476475603305,0 -120.5862578625711,37.43645306217785,0 -120.5893870081135,37.43649852025504,0 -120.58942867938,37.4347675570264,0 -120.5862672646496,37.43476475603305,0 
					</coordinates>
				</LinearRing>
			</outerBoundaryIs>
		</Polygon>
	</Placemark>
	<Placemark id="03B2F65DB03EE66BBE66">
		<name>Field 24 - Fagundes Block 67A - Autumn Flame Freestone Peach - 18 acres</name>
		<LookAt>
			<longitude>-120.5809202911009</longitude>
			<latitude>37.4352471187882</latitude>
			<altitude>67.74523565385907</altitude>
			<heading>1.604689624936003e-12</heading>
			<tilt>0</tilt>
			<gx:fovy>30.0003389735916</gx:fovy>
			<range>1151.497160909203</range>
			<altitudeMode>absolute</altitudeMode>
		</LookAt>
		<styleUrl>#__managed_style_1476ABF7B73F24B33298</styleUrl>
		<Polygon>
			<outerBoundaryIs>
				<LinearRing>
					<coordinates>
						-120.5824422759318,37.43647186487706,0 -120.5826302164313,37.4363826129812,0 -120.5826365535194,37.43302540747285,0 -120.5805586153781,37.43301730052407,0 -120.5805346984426,37.43628485232954,0 -120.5808042632156,37.43645022127101,0 -120.5824422759318,37.43647186487706,0 
					</coordinates>
				</LinearRing>
			</outerBoundaryIs>
		</Polygon>
	</Placemark>
	<Placemark id="0CCED2057B3EE66CF636">
		<name>Field 25 - Fagundes Block 67B - Kaweah Freestone Peach - 15 acres </name>
		<LookAt>
			<longitude>-120.5802759295565</longitude>
			<latitude>37.43624225391736</latitude>
			<altitude>76.47609344455165</altitude>
			<heading>0</heading>
			<tilt>0</tilt>
			<gx:fovy>30.0003389735916</gx:fovy>
			<range>1387.93259366139</range>
			<altitudeMode>absolute</altitudeMode>
		</LookAt>
		<styleUrl>#__managed_style_0786DEA4BE3F24B33298</styleUrl>
		<Polygon>
			<outerBoundaryIs>
				<LinearRing>
					<coordinates>
						-120.5825887891846,37.43656800974497,0 -120.5806014549755,37.43661746703966,0 -120.5792433683076,37.43660080573589,0 -120.5760659594338,37.43656755314453,0 -120.5760607138908,37.4375248604975,0 -120.5826184018498,37.43758535282432,0 -120.5825887891846,37.43656800974497,0 
					</coordinates>
				</LinearRing>
			</outerBoundaryIs>
		</Polygon>
	</Placemark>
	<Placemark id="05D5F241A13EE66E1952">
		<name>Field 26 - Fagundes Block 70A - Carnival Freestone Peach - 20 acres</name>
		<LookAt>
			<longitude>-120.5851072784384</longitude>
			<latitude>37.43871691557785</latitude>
			<altitude>62.8155025921529</altitude>
			<heading>0</heading>
			<tilt>0</tilt>
			<gx:fovy>30.0003389735916</gx:fovy>
			<range>2228.474446040054</range>
			<altitudeMode>absolute</altitudeMode>
		</LookAt>
		<styleUrl>#__managed_style_0786DEA4BE3F24B33298</styleUrl>
		<Polygon>
			<outerBoundaryIs>
				<LinearRing>
					<coordinates>
						-120.584909160196,37.43661419394734,0 -120.5848035394428,37.44003808525138,0 -120.5894946422302,37.44010184875219,0 -120.5854044838119,37.43664545590173,0 -120.584909160196,37.43661419394734,0 
					</coordinates>
				</LinearRing>
			</outerBoundaryIs>
		</Polygon>
	</Placemark>
	<Placemark id="07296EE1BA3EE66EF794">
		<name>Field 27 - Fagundes Block 70B - Fairtime Freestone Peach - 19 acres </name>
		<LookAt>
			<longitude>-120.5851072784384</longitude>
			<latitude>37.43871691557785</latitude>
			<altitude>62.8155025921529</altitude>
			<heading>0</heading>
			<tilt>0</tilt>
			<gx:fovy>30.0003389735916</gx:fovy>
			<range>2228.474446040054</range>
			<altitudeMode>absolute</altitudeMode>
		</LookAt>
		<styleUrl>#__managed_style_0786DEA4BE3F24B33298</styleUrl>
		<Polygon>
			<outerBoundaryIs>
				<LinearRing>
					<coordinates>
						-120.5848497003635,37.436624479824,0 -120.5828161312123,37.43659358333228,0 -120.5828684288473,37.43997014746077,0 -120.5848035394115,37.44004332777447,0 -120.5848497003635,37.436624479824,0 
					</coordinates>
				</LinearRing>
			</outerBoundaryIs>
		</Polygon>
	</Placemark>
	<Placemark id="0B92772A473EE67008CF">
		<name>Field 28 - Fagundes Block 71 - Angelus Freestone Peach - 9 acres</name>
		<LookAt>
			<longitude>-120.58218725139</longitude>
			<latitude>37.43919122260922</latitude>
			<altitude>63.41839941436891</altitude>
			<heading>0</heading>
			<tilt>0</tilt>
			<gx:fovy>30.0003389735916</gx:fovy>
			<range>2227.871643035906</range>
			<altitudeMode>absolute</altitudeMode>
		</LookAt>
		<styleUrl>#__managed_style_0786DEA4BE3F24B33298</styleUrl>
		<Polygon>
			<outerBoundaryIs>
				<LinearRing>
					<coordinates>
						-120.5848959144819,37.44013537885455,0 -120.5827950012177,37.44008288415317,0 -120.5828484045201,37.44165317890828,0 -120.584541117106,37.4422675191466,0 -120.5848784983568,37.44206296360438,0 -120.5848959144819,37.44013537885455,0 
					</coordinates>
				</LinearRing>
			</outerBoundaryIs>
		</Polygon>
	</Placemark>
	<Placemark id="045599D4C53EE6714E6C">
		<name>Field 29 - Fagundes Block 72A - Parade Freestone Peach - 16 acres</name>
		<LookAt>
			<longitude>-120.58218725139</longitude>
			<latitude>37.43919122260922</latitude>
			<altitude>63.41839941436891</altitude>
			<heading>0</heading>
			<tilt>0</tilt>
			<gx:fovy>30.0003389735916</gx:fovy>
			<range>2227.871643035906</range>
			<altitudeMode>absolute</altitudeMode>
		</LookAt>
		<styleUrl>#__managed_style_0786DEA4BE3F24B33298</styleUrl>
		<Polygon>
			<outerBoundaryIs>
				<LinearRing>
					<coordinates>
						-120.5793215468099,37.43989371356886,0 -120.582708894042,37.43991472442683,0 -120.582471179958,37.43966306834551,0 -120.5827352976448,37.43941665913105,0 -120.5827220800053,37.43770228349997,0 -120.5793219372029,37.43774434938859,0 -120.5793545745157,37.43933798587803,0 -120.5796781146502,37.43955818811346,0 -120.5793215468099,37.43989371356886,0 
					</coordinates>
				</LinearRing>
			</outerBoundaryIs>
		</Polygon>
	</Placemark>
	<Placemark id="0FBB976CC43EE6721D8F">
		<name>Field 30 - Fagundes Block 72B - July Flame Freestone Peach - 11 acres</name>
		<LookAt>
			<longitude>-120.58218725139</longitude>
			<latitude>37.43919122260922</latitude>
			<altitude>63.41839941436891</altitude>
			<heading>0</heading>
			<tilt>0</tilt>
			<gx:fovy>30.0003389735916</gx:fovy>
			<range>2227.871643035906</range>
			<altitudeMode>absolute</altitudeMode>
		</LookAt>
		<styleUrl>#__managed_style_0786DEA4BE3F24B33298</styleUrl>
		<Polygon>
			<outerBoundaryIs>
				<LinearRing>
					<coordinates>
						-120.5823921187716,37.44151567851429,0 -120.5827155036218,37.44138268899793,0 -120.5827419189521,37.43991997923362,0 -120.5792425919487,37.43990937165759,0 -120.5792952395359,37.44050705463567,0 -120.5823921187716,37.44151567851429,0 
					</coordinates>
				</LinearRing>
			</outerBoundaryIs>
		</Polygon>
	</Placemark>
	<Placemark id="0D411F74E63EE6734832">
		<name>Field 31 - Fagundes Block 73 - Angelus Freestone Peach - 19 acres</name>
		<LookAt>
			<longitude>-120.5787669315393</longitude>
			<latitude>37.43918595275989</latitude>
			<altitude>63.94497419142343</altitude>
			<heading>0</heading>
			<tilt>0</tilt>
			<gx:fovy>30.0003389735916</gx:fovy>
			<range>2227.344862557657</range>
			<altitudeMode>absolute</altitudeMode>
		</LookAt>
		<styleUrl>#__managed_style_0786DEA4BE3F24B33298</styleUrl>
		<Polygon>
			<outerBoundaryIs>
				<LinearRing>
					<coordinates>
						-120.5792634439641,37.4376766783028,0 -120.5760483187386,37.43769729502115,0 -120.575928579206,37.43951086202342,0 -120.5764169144507,37.43974674685343,0 -120.5770111179781,37.4398620263508,0 -120.5791233477268,37.44051704922595,0 -120.5792357475634,37.44013488697079,0 -120.5792634439641,37.4376766783028,0 
					</coordinates>
				</LinearRing>
			</outerBoundaryIs>
		</Polygon>
	</Placemark>
	<Placemark id="03F7132C653EE674271B">
		<name>Field 32 - Fagundes Block 74A - Kaweah Freestone Peach - 20 acres</name>
		<LookAt>
			<longitude>-120.5799285571518</longitude>
			<latitude>37.44140105075208</latitude>
			<altitude>64.65477302234667</altitude>
			<heading>3.742276442257539e-12</heading>
			<tilt>0</tilt>
			<gx:fovy>30.0003389735916</gx:fovy>
			<range>2226.635071754863</range>
			<altitudeMode>absolute</altitudeMode>
		</LookAt>
		<styleUrl>#__managed_style_0786DEA4BE3F24B33298</styleUrl>
		<Polygon>
			<outerBoundaryIs>
				<LinearRing>
					<coordinates>
						-120.5788263261838,37.44057305613678,0 -120.5782521621021,37.44390054023409,0 -120.5807469341461,37.44472835268023,0 -120.5808593799907,37.44422086452531,0 -120.5809255447521,37.44124377839992,0 -120.5788263261838,37.44057305613678,0 
					</coordinates>
				</LinearRing>
			</outerBoundaryIs>
		</Polygon>
	</Placemark>
	<Placemark id="02C1A70BAA3EE67516C1">
		<name>Field 33 - Fagundes Block 74B - Zee Lady Freestone Peach - 22 acres</name>
		<LookAt>
			<longitude>-120.5764207649639</longitude>
			<latitude>37.44219567850113</latitude>
			<altitude>66.43971147023812</altitude>
			<heading>3.8954210220069e-15</heading>
			<tilt>0</tilt>
			<gx:fovy>30.0003389735916</gx:fovy>
			<range>1666.311415450182</range>
			<altitudeMode>absolute</altitudeMode>
		</LookAt>
		<styleUrl>#__managed_style_0786DEA4BE3F24B33298</styleUrl>
		<Polygon>
			<outerBoundaryIs>
				<LinearRing>
					<coordinates>
						-120.5758225514678,37.4429768043333,0 -120.5761785020626,37.44302787242141,0 -120.5760746112019,37.44330677977893,0 -120.5782454107243,37.44393485936126,0 -120.5788338078122,37.44057026379929,0 -120.5768014496582,37.43999742384408,0 -120.5762526173467,37.43991819759781,0 -120.5758867179003,37.44005198019501,0 -120.5758225514678,37.4429768043333,0 
					</coordinates>
				</LinearRing>
			</outerBoundaryIs>
		</Polygon>
	</Placemark>
	<Placemark id="06D611C8F93EE675CF3B">
		<name>Field 34 - Fagundes Block 76A - Fay Elberta Freestone Peach - 10 acres</name>
		<LookAt>
			<longitude>-120.5729998663016</longitude>
			<latitude>37.44391358819434</latitude>
			<altitude>64.65496423754139</altitude>
			<heading>359.9999999999998</heading>
			<tilt>0</tilt>
			<gx:fovy>30.0003389735916</gx:fovy>
			<range>1381.141742469772</range>
			<altitudeMode>absolute</altitudeMode>
		</LookAt>
		<styleUrl>#__managed_style_0786DEA4BE3F24B33298</styleUrl>
		<Polygon>
			<outerBoundaryIs>
				<LinearRing>
					<coordinates>
						-120.5757707350097,37.44382268445965,0 -120.5714016148089,37.4438938661918,0 -120.5714004632005,37.44495931727577,0 -120.5757666750324,37.44490790905053,0 -120.5757707350097,37.44382268445965,0 
					</coordinates>
				</LinearRing>
			</outerBoundaryIs>
		</Polygon>
	</Placemark>
	<Placemark id="0BFD3E28FB3EE676633F">
		<name>Field 35 - Fagundes Block 76B - Elegant Lady Freestone Peach - 20 acres</name>
		<LookAt>
			<longitude>-120.5729998663016</longitude>
			<latitude>37.44391358819434</latitude>
			<altitude>64.65496423754139</altitude>
			<heading>359.9999999999998</heading>
			<tilt>0</tilt>
			<gx:fovy>30.0003389735916</gx:fovy>
			<range>1381.141742469772</range>
			<altitudeMode>absolute</altitudeMode>
		</LookAt>
		<styleUrl>#__managed_style_0786DEA4BE3F24B33298</styleUrl>
		<Polygon>
			<outerBoundaryIs>
				<LinearRing>
					<coordinates>
						-120.5757180725115,37.443825802273,0 -120.5756844305545,37.44191855972772,0 -120.5713453171669,37.44202112448745,0 -120.5714088512321,37.44389084709341,0 -120.5757180725115,37.443825802273,0 
					</coordinates>
				</LinearRing>
			</outerBoundaryIs>
		</Polygon>
	</Placemark>
	<Placemark id="05E38FB0F93EE73EC37C">
		<name>Field 36 - Fagundes Block 66 - Independence Almond - 27 acres</name>
		<LookAt>
			<longitude>-120.5842386602718</longitude>
			<latitude>37.43520128344526</latitude>
			<altitude>63.43067592980656</altitude>
			<heading>359.9999999999966</heading>
			<tilt>0</tilt>
			<gx:fovy>30.0003389735916</gx:fovy>
			<range>1224.956986003235</range>
			<altitudeMode>absolute</altitudeMode>
		</LookAt>
		<styleUrl>#__managed_style_036E44ACBB3F24B33299</styleUrl>
		<Polygon>
			<outerBoundaryIs>
				<LinearRing>
					<coordinates>
						-120.5860283438343,37.43302202144262,0 -120.5854289618227,37.43301411753642,0 -120.5849426683511,37.43301703781162,0 -120.5828921811236,37.43312053467888,0 -120.582884914881,37.43363351793342,0 -120.5827941763576,37.43396493722967,0 -120.5828193607422,37.43652711270437,0 -120.5852988205616,37.43655622385133,0 -120.5855456004236,37.43637162562759,0 -120.586021825828,37.43634264656122,0 -120.5860283438343,37.43302202144262,0 
					</coordinates>
				</LinearRing>
			</outerBoundaryIs>
		</Polygon>
	</Placemark>
	<Placemark id="03E7B9DF7F3EE7403422">
		<name>Field 37 - Fagundes Block 68 - Independence Almond - 35 acres</name>
		<LookAt>
			<longitude>-120.5896061436555</longitude>
			<latitude>37.43871775204739</latitude>
			<altitude>57.86718554907335</altitude>
			<heading>0</heading>
			<tilt>0</tilt>
			<gx:fovy>30.0003389735916</gx:fovy>
			<range>1230.520444243157</range>
			<altitudeMode>absolute</altitudeMode>
		</LookAt>
		<styleUrl>#__managed_style_036E44ACBB3F24B33299</styleUrl>
		<Polygon>
			<outerBoundaryIs>
				<LinearRing>
					<coordinates>
						-120.5917671554351,37.44007765792249,0 -120.5917795310338,37.43654898980333,0 -120.5863079665349,37.43649820026462,0 -120.5863139332497,37.43707051395711,0 -120.5897337369132,37.44001738493868,0 -120.5917671554351,37.44007765792249,0 
					</coordinates>
				</LinearRing>
			</outerBoundaryIs>
		</Polygon>
	</Placemark>
	<Placemark id="0D8705FDA33EE7420889">
		<name>Field 38 - Fagundes Block 75 - Independence Almond - 26 acres</name>
		<LookAt>
			<longitude>-120.5733091183759</longitude>
			<latitude>37.44598594349426</latitude>
			<altitude>64.65446618793835</altitude>
			<heading>0</heading>
			<tilt>0</tilt>
			<gx:fovy>30.0003389735916</gx:fovy>
			<range>1390.18471463598</range>
			<altitudeMode>absolute</altitudeMode>
		</LookAt>
		<styleUrl>#__managed_style_036E44ACBB3F24B33299</styleUrl>
		<Polygon>
			<outerBoundaryIs>
				<LinearRing>
					<coordinates>
						-120.5756661488979,37.4473632045679,0 -120.5757826158831,37.44703325020982,0 -120.5757278817733,37.44500120948697,0 -120.5714271669254,37.4450148939174,0 -120.5713320762851,37.44720563783469,0 -120.5716571995732,37.44742495947659,0 -120.5756661488979,37.4473632045679,0 
					</coordinates>
				</LinearRing>
			</outerBoundaryIs>
		</Polygon>
	</Placemark>
	<Placemark id="0E2A6C1E683EE742F2D9">
		<name>Field 39 - Fagundes Block 77 - Independence Almond - 26 acres</name>
		<LookAt>
			<longitude>-120.5731233373839</longitude>
			<latitude>37.44083158845359</latitude>
			<altitude>67.45866119340573</altitude>
			<heading>1.207418269725733e-06</heading>
			<tilt>0</tilt>
			<gx:fovy>30.0003389735916</gx:fovy>
			<range>1387.408409074269</range>
			<altitudeMode>absolute</altitudeMode>
		</LookAt>
		<styleUrl>#__managed_style_036E44ACBB3F24B33299</styleUrl>
		<Polygon>
			<outerBoundaryIs>
				<LinearRing>
					<coordinates>
						-120.5757431711739,37.44189450148148,0 -120.5757077532028,37.43991519485589,0 -120.5749987337412,37.43983341879289,0 -120.5741619479733,37.43957497227848,0 -120.5732510670683,37.43933977557064,0 -120.5724476179197,37.43906826303042,0 -120.5717435365447,37.43887918646556,0 -120.571356228829,37.43891500247487,0 -120.571446356472,37.44193077798071,0 -120.5757431711739,37.44189450148148,0 
					</coordinates>
				</LinearRing>
			</outerBoundaryIs>
		</Polygon>
	</Placemark>
	<Placemark id="0B0ADC47143EE7444231">
		<name>Field 40 - Fagundes Block 61 - Independence Almond - 17 acres</name>
		<LookAt>
			<longitude>-120.5864880124519</longitude>
			<latitude>37.43151922551061</latitude>
			<altitude>64.00543903809756</altitude>
			<heading>359.9999999999994</heading>
			<tilt>0</tilt>
			<gx:fovy>30.0003389735916</gx:fovy>
			<range>1203.385316147906</range>
			<altitudeMode>absolute</altitudeMode>
		</LookAt>
		<styleUrl>#__managed_style_036E44ACBB3F24B33299</styleUrl>
		<Polygon>
			<outerBoundaryIs>
				<LinearRing>
					<coordinates>
						-120.5880257831922,37.43276580650305,0 -120.5884039807575,37.43268647326362,0 -120.5884074696099,37.42938016495698,0 -120.5867554804247,37.42934144418825,0 -120.5864238295443,37.42950882984135,0 -120.5864274289218,37.43134377200663,0 -120.5863025957145,37.4321846121592,0 -120.5863024813885,37.43275448229738,0 -120.5880257831922,37.43276580650305,0 
					</coordinates>
				</LinearRing>
			</outerBoundaryIs>
		</Polygon>
	</Placemark>
	<Placemark id="0B139BBEE23EE745558E">
		<name>Field 41 - Fagundes Block 62 - Independence Almond - 27 acres</name>
		<LookAt>
			<longitude>-120.5845707182789</longitude>
			<latitude>37.43161363792595</latitude>
			<altitude>66.55680038752607</altitude>
			<heading>2.614701196265704e-17</heading>
			<tilt>0</tilt>
			<gx:fovy>30.0003389735916</gx:fovy>
			<range>1627.012034238141</range>
			<altitudeMode>absolute</altitudeMode>
		</LookAt>
		<styleUrl>#__managed_style_036E44ACBB3F24B33299</styleUrl>
		<Polygon>
			<outerBoundaryIs>
				<LinearRing>
					<coordinates>
						-120.583776308145,37.43240483567317,0 -120.584082999514,37.43245925348216,0 -120.5840490168054,37.43278345238735,0 -120.5859454269649,37.43282048192203,0 -120.5862940431312,37.43268327023043,0 -120.5862861720332,37.42937747755654,0 -120.5857996650559,37.42929457759255,0 -120.5850214544874,37.42932571654512,0 -120.5849520795525,37.42865263671307,0 -120.5837968297003,37.428568788531,0 -120.5833995658518,37.42868008057444,0 -120.583352275592,37.43211078363733,0 -120.5837616331965,37.43217579905597,0 -120.583776308145,37.43240483567317,0 
					</coordinates>
				</LinearRing>
			</outerBoundaryIs>
		</Polygon>
	</Placemark>
	<Placemark id="0320E2BF7B3EE7466000">
		<name>Field 42 - Fagundes Block 63 - Independence Almond - 32 acres</name>
		<LookAt>
			<longitude>-120.5818092959351</longitude>
			<latitude>37.43078414017244</latitude>
			<altitude>67.2282612198173</altitude>
			<heading>0</heading>
			<tilt>0</tilt>
			<gx:fovy>30.0003389735916</gx:fovy>
			<range>1626.374001282966</range>
			<altitudeMode>absolute</altitudeMode>
		</LookAt>
		<styleUrl>#__managed_style_036E44ACBB3F24B33299</styleUrl>
		<Polygon>
			<outerBoundaryIs>
				<LinearRing>
					<coordinates>
						-120.5828387072669,37.43281622723415,0 -120.5832183683101,37.43271642782705,0 -120.5832574594015,37.43215184317162,0 -120.5833400194462,37.43180087927689,0 -120.5834094977346,37.42868149649404,0 -120.5822465630625,37.42780777803443,0 -120.581511174081,37.42787828721146,0 -120.5809384048712,37.42787257051488,0 -120.5805251395971,37.42824425789874,0 -120.5805245226745,37.42881241129604,0 -120.5807356909747,37.42920136391977,0 -120.5806261214311,37.43274337969304,0 -120.5828387072669,37.43281622723415,0 
					</coordinates>
				</LinearRing>
			</outerBoundaryIs>
		</Polygon>
	</Placemark>
	<Placemark id="027309D35D3EE748479D">
		<name>Field 43 - Fagundes Block 60 - Independence Almond - 28 acres</name>
		<LookAt>
			<longitude>-120.5896948840424</longitude>
			<latitude>37.43169891595914</latitude>
			<altitude>61.0943205269259</altitude>
			<heading>359.9348665672326</heading>
			<tilt>0</tilt>
			<gx:fovy>30.00000282000352</gx:fovy>
			<range>1391.711562171404</range>
			<altitudeMode>absolute</altitudeMode>
		</LookAt>
		<styleUrl>#__managed_style_00B8B3D2233F24B3329C</styleUrl>
		<Polygon>
			<outerBoundaryIs>
				<LinearRing>
					<coordinates>
						-120.5887167850227,37.43112349635295,0 -120.5887044482379,37.43134606772293,0 -120.5885026339625,37.43134633571334,0 -120.5885170369783,37.43282319841224,0 -120.5918248804073,37.43281715048488,0 -120.5918765628275,37.42963150774129,0 -120.5916292607166,37.42936939882044,0 -120.5885784913467,37.42937887921684,0 -120.5885489792007,37.43108223846097,0 -120.5887167850227,37.43112349635295,0 
					</coordinates>
				</LinearRing>
			</outerBoundaryIs>
		</Polygon>
	</Placemark>
	<Placemark id="00A929DBF73EE749AA83">
		<name>Field 44 - Fagundes Mello - Independence Almond - 35 acres</name>
		<LookAt>
			<longitude>-120.591166799129</longitude>
			<latitude>37.47476022980258</latitude>
			<altitude>65.47329286640053</altitude>
			<heading>359.9348567774835</heading>
			<tilt>0</tilt>
			<gx:fovy>30.00000282000352</gx:fovy>
			<range>1298.151566650195</range>
			<altitudeMode>absolute</altitudeMode>
		</LookAt>
		<styleUrl>#__managed_style_00B8B3D2233F24B3329C</styleUrl>
		<Polygon>
			<outerBoundaryIs>
				<LinearRing>
					<coordinates>
						-120.5925503861336,37.47559317310607,0 -120.5925885659627,37.4753639881107,0 -120.5929473217961,37.47534556594067,0 -120.5931635579265,37.47544332138416,0 -120.5934483446738,37.47528099242804,0 -120.5933007969337,37.47484085585876,0 -120.5931772874776,37.47445576829244,0 -120.5930413352856,37.47393332549611,0 -120.5929135079537,37.47352706107482,0 -120.592834769152,37.47303637000764,0 -120.592118997156,37.47286231824154,0 -120.5913837690788,37.47284304756204,0 -120.5904869211841,37.47297350693662,0 -120.5893363409972,37.47329539961338,0 -120.5889512177337,37.47386973598421,0 -120.5878205753551,37.47456775625014,0 -120.5880568507142,37.47658237622651,0 -120.5884423000157,37.47658190907115,0 -120.5925503861336,37.47559317310607,0 
					</coordinates>
				</LinearRing>
			</outerBoundaryIs>
		</Polygon>
	</Placemark>
	<Placemark id="086F7BA2D93EE74B03E9">
		<name>Field 45 - Fagundes Angel Ranch - Nonpareil/Monterey/Carmel Almond - 17 acres</name>
		<LookAt>
			<longitude>-120.5837071195237</longitude>
			<latitude>37.40238727768038</latitude>
			<altitude>75.68365057833607</altitude>
			<heading>359.9348463405204</heading>
			<tilt>0</tilt>
			<gx:fovy>30.00000282000352</gx:fovy>
			<range>1230.824348925962</range>
			<altitudeMode>absolute</altitudeMode>
		</LookAt>
		<styleUrl>#__managed_style_00B8B3D2233F24B3329C</styleUrl>
		<Polygon>
			<outerBoundaryIs>
				<LinearRing>
					<coordinates>
						-120.585727053777,37.40216469968808,0 -120.5856776985036,37.40048482225149,0 -120.5844873606384,37.40036904779361,0 -120.5811593550937,37.40037313742697,0 -120.5811243177676,37.40199183775227,0 -120.5814558353035,37.40215233549961,0 -120.5833946230931,37.40212140021284,0 -120.5848448519928,37.40210827783245,0 -120.585727053777,37.40216469968808,0 
					</coordinates>
				</LinearRing>
			</outerBoundaryIs>
		</Polygon>
	</Placemark>
</Document>
</kml>
