{"type":"FeatureCollection","metadata":{"source":"California DWR — Water Districts (i03_WaterDistricts)","sourceUrl":"https://gis.water.ca.gov/arcgis/rest/services/Boundaries/i03_WaterDistricts/FeatureServer/0","retrievedAt":"2026-05-03T21:06:34.535Z","method":"ArcGIS FeatureServer query with esriSpatialRelIntersects against the field AOI envelope; features returned in WGS84 (EPSG:4326) GeoJSON, then clipped to field polygons via polygon-clipping (Greiner-Hormann)","aoiBbox":[-120.78271166048839,37.3586295202637,-120.56633207628511,37.48158237622651],"caveat":"Boundaries shown are public-agency service-area boundaries published by the California Department of Water Resources. They do not represent actual delivery accounts, parcel-level service, or guaranteed surface-water availability. Confirm with the agency before relying on this overlay for operational decisions.","polygonCount":46,"districtCount":11,"fieldCount":45},"features":[{"type":"Feature","geometry":{"type":"Polygon","coordinates":[[[-120.7774588262209,37.40725631872299],[-120.7730893897808,37.4072240273801],[-120.7729614973434,37.41020648173712],[-120.7730511104436,37.41036619620408],[-120.7773642241613,37.41040360148376],[-120.7774588262209,37.40725631872299]]]},"properties":{"fieldId":1,"block":"Johnston Block 1","agencyName":"Turlock Irrigation District","agencyUniqueId":2525,"source":"SCRO","dateApplies":"2013-11-07","category":"irrigation_district","acres":33.562}},{"type":"Feature","geometry":{"type":"Polygon","coordinates":[[[-120.7775164518144,37.40518911870875],[-120.7771707680162,37.40512846743876],[-120.7755956710842,37.40509653009134],[-120.7751395834078,37.40508350150814],[-120.7741154538287,37.40505207678186],[-120.7740879320429,37.40539958521321],[-120.7739578282118,37.40553566372317],[-120.773125919115,37.40555386634091],[-120.7730834223982,37.40715174990564],[-120.7774600089149,37.40716444490492],[-120.7775164518144,37.40518911870875]]]},"properties":{"fieldId":2,"block":"Johnston Block 2","agencyName":"Turlock Irrigation District","agencyUniqueId":2525,"source":"SCRO","dateApplies":"2013-11-07","category":"irrigation_district","acres":20.897}},{"type":"Feature","geometry":{"type":"Polygon","coordinates":[[[-120.773069146482,37.40514190313559],[-120.7728893809373,37.40509578557229],[-120.7705558164958,37.40507779422353],[-120.7705086222073,37.40852828679454],[-120.7707515480407,37.40850094117642],[-120.7729901810447,37.40852060342349],[-120.773069146482,37.40514190313559]]]},"properties":{"fieldId":3,"block":"Johnston Block 3A","agencyName":"Turlock Irrigation District","agencyUniqueId":2525,"source":"SCRO","dateApplies":"2013-11-07","category":"irrigation_district","acres":20.794}},{"type":"Feature","geometry":{"type":"Polygon","coordinates":[[[-120.7705470299572,37.40510106813397],[-120.7686714422769,37.4050530332243],[-120.7685776268531,37.40848750039695],[-120.7704799835933,37.4085082222033],[-120.7705470299572,37.40510106813397]]]},"properties":{"fieldId":4,"block":"Johnston Block 3B","agencyName":"Turlock Irrigation District","agencyUniqueId":2525,"source":"SCRO","dateApplies":"2013-11-07","category":"irrigation_district","acres":15.724}},{"type":"Feature","geometry":{"type":"Polygon","coordinates":[[[-120.7684273089563,37.40503362462687],[-120.7659933362285,37.40500385481869],[-120.764691935405,37.40647731537217],[-120.7647342855366,37.4066538351988],[-120.7683711744362,37.40666480664833],[-120.7684273089563,37.40503362462687]]]},"properties":{"fieldId":5,"block":"Johnston Block 4","agencyName":"Turlock Irrigation District","agencyUniqueId":2525,"source":"SCRO","dateApplies":"2013-11-07","category":"irrigation_district","acres":12.501}},{"type":"Feature","geometry":{"type":"Polygon","coordinates":[[[-120.7696217469792,37.40219019639378],[-120.7670088535289,37.40392389048751],[-120.7669151792914,37.40423431534131],[-120.7666588709994,37.40431117072369],[-120.766253047581,37.4048367390366],[-120.7695013075513,37.40487029009856],[-120.7696217469792,37.40219019639378]]]},"properties":{"fieldId":6,"block":"Johnston Block 5A","agencyName":"Turlock Irrigation District","agencyUniqueId":2525,"source":"SCRO","dateApplies":"2013-11-07","category":"irrigation_district","acres":11.845}},{"type":"Feature","geometry":{"type":"Polygon","coordinates":[[[-120.772775457098,37.40488833333547],[-120.7706836174851,37.40254003259267],[-120.7706615759357,37.40159441014536],[-120.7696312859731,37.40214619108671],[-120.7695863562087,37.40486423448109],[-120.772775457098,37.40488833333547]]]},"properties":{"fieldId":7,"block":"Johnston Block 5B","agencyName":"Turlock Irrigation District","agencyUniqueId":2525,"source":"SCRO","dateApplies":"2013-11-07","category":"irrigation_district","acres":13.747}},{"type":"Feature","geometry":{"type":"Polygon","coordinates":[[[-120.7753260825638,37.40142870111971],[-120.7744577896318,37.40157873687607],[-120.7735662920052,37.40159545618055],[-120.7726488884812,37.40142655783476],[-120.7716396244263,37.40143573691704],[-120.7707152861212,37.40156401320835],[-120.7707207343758,37.40252682773743],[-120.7724429997524,37.40439692212339],[-120.7730102587141,37.40444915476115],[-120.7734348524751,37.40440715706657],[-120.7734348814248,37.40490826061593],[-120.7752781395586,37.40495673370786],[-120.7753260825638,37.40142870111971]]]},"properties":{"fieldId":8,"block":"Johnston Block 56/58","agencyName":"Turlock Irrigation District","agencyUniqueId":2525,"source":"SCRO","dateApplies":"2013-11-07","category":"irrigation_district","acres":30.82}},{"type":"Feature","geometry":{"type":"Polygon","coordinates":[[[-120.6570268924396,37.36572649485285],[-120.6526101917561,37.36571826057524],[-120.6525368407216,37.3673447931334],[-120.6530965928591,37.36735850108173],[-120.6531104075042,37.3675754245315],[-120.6569239430763,37.36756723620872],[-120.6570268924396,37.36572649485285]]]},"properties":{"fieldId":9,"block":"Johnston Block 36A","agencyName":"Merced Irrigation District","agencyUniqueId":1591,"source":"SERYSIAN","dateApplies":"2016-08-05","category":"irrigation_district","acres":19.525}},{"type":"Feature","geometry":{"type":"Polygon","coordinates":[[[-120.6570764851446,37.36414945172374],[-120.6553143227895,37.3636295202637],[-120.6549444225318,37.36362982075811],[-120.6549478692193,37.36403939870173],[-120.6540045096227,37.364028655785],[-120.6530540090931,37.36407785664208],[-120.653126343126,37.36430838810237],[-120.6532579367767,37.36449814364691],[-120.6532959416124,37.36504474061245],[-120.6531369519657,37.36513456513748],[-120.6527187938872,37.36518675636916],[-120.6526118075677,37.36543403364272],[-120.6526081900061,37.36570862234714],[-120.6570214361037,37.36572316837858],[-120.6570764851446,37.36414945172374]]]},"properties":{"fieldId":10,"block":"Johnston Block 36B","agencyName":"Merced Irrigation District","agencyUniqueId":1591,"source":"SERYSIAN","dateApplies":"2016-08-05","category":"irrigation_district","acres":17.437}},{"type":"Feature","geometry":{"type":"Polygon","coordinates":[[[-120.6500969830462,37.36763787343931],[-120.6479581511652,37.36763431026664],[-120.6479500772993,37.36942109917576],[-120.6480703561354,37.36962678818971],[-120.6479916712235,37.37027959602877],[-120.6486402064793,37.37078462454965],[-120.6489785335947,37.37092729050593],[-120.6495101804112,37.37097660553652],[-120.6500898424026,37.37101174055705],[-120.6500969830462,37.36763787343931]]]},"properties":{"fieldId":11,"block":"Johnston Block 39","agencyName":"Merced Irrigation District","agencyUniqueId":1591,"source":"SERYSIAN","dateApplies":"2016-08-05","category":"irrigation_district","acres":16.37}},{"type":"Feature","geometry":{"type":"Polygon","coordinates":[[[-120.6501902337663,37.36519051547046],[-120.6496769132511,37.36498474146969],[-120.6489770712399,37.3644342336035],[-120.6484841304275,37.36412997474016],[-120.6479670090984,37.36412439113236],[-120.6469437107446,37.36478244821883],[-120.6469611239379,37.36575488904382],[-120.6476846601248,37.3657548382841],[-120.6476185107603,37.3675057475538],[-120.6494630462512,37.36748330021897],[-120.6495217971795,37.36694654172518],[-120.6490839665358,37.36690270448847],[-120.6490494362569,37.36674368492008],[-120.6491043342945,37.3665195710234],[-120.6495871638946,37.3665053779054],[-120.6496009336206,37.36748606696482],[-120.65015042638,37.36745992172538],[-120.6501902337663,37.36519051547046]]]},"properties":{"fieldId":12,"block":"Johnston Block 40","agencyName":"Merced Irrigation District","agencyUniqueId":1591,"source":"SERYSIAN","dateApplies":"2016-08-05","category":"irrigation_district","acres":19.593}},{"type":"Feature","geometry":{"type":"Polygon","coordinates":[[[-120.6524939490554,37.36406624173803],[-120.6511017553281,37.36404738600211],[-120.6510981231496,37.36524072034275],[-120.6503498546155,37.36527090666535],[-120.6503213033844,37.36753882846952],[-120.6524900557222,37.36755399837968],[-120.6524939490554,37.36406624173803]]]},"properties":{"fieldId":13,"block":"Johnston Block 35","agencyName":"Merced Irrigation District","agencyUniqueId":1591,"source":"SERYSIAN","dateApplies":"2016-08-05","category":"irrigation_district","acres":16.083}},{"type":"Feature","geometry":{"type":"Polygon","coordinates":[[[-120.7776197497555,37.40099181691296],[-120.7773122173602,37.40077516788004],[-120.7767540715295,37.40068705920007],[-120.7761317392777,37.40090430373372],[-120.775412138159,37.40140616223433],[-120.7753392425093,37.40493728857744],[-120.7775565196022,37.40492777678314],[-120.7775288243434,37.40369986516001],[-120.7768692909271,37.40367446379832],[-120.7768932772395,37.40322040282986],[-120.7775647954528,37.40326167958663],[-120.7776197497555,37.40099181691296]]]},"properties":{"fieldId":14,"block":"Blue Lupin Block 17","agencyName":"Turlock Irrigation District","agencyUniqueId":2525,"source":"SCRO","dateApplies":"2013-11-07","category":"irrigation_district","acres":20.735}},{"type":"Feature","geometry":{"type":"Polygon","coordinates":[[[-120.7777116604884,37.39807993777359],[-120.7774686157757,37.39807391899747],[-120.7738301180471,37.39861219946714],[-120.7738479453089,37.39991544106726],[-120.7749547249175,37.39976874369223],[-120.7749274187959,37.40116039986933],[-120.7752844668382,37.40106414611721],[-120.7757598232909,37.40077602978015],[-120.7765618952797,37.40043689724236],[-120.7770345722328,37.40044421806659],[-120.7776525364646,37.40054533805421],[-120.7777116604884,37.39807993777359]]]},"properties":{"fieldId":15,"block":"Blue Lupin Block 18","agencyName":"Turlock Irrigation District","agencyUniqueId":2525,"source":"SCRO","dateApplies":"2013-11-07","category":"irrigation_district","acres":19.68}},{"type":"Feature","geometry":{"type":"Polygon","coordinates":[[[-120.7749083243662,37.39983121561715],[-120.7738128611296,37.39995886163589],[-120.7737951890466,37.39874560066595],[-120.7735861566363,37.39865328669789],[-120.7687054911779,37.39932182538634],[-120.768632333953,37.40231366789217],[-120.7688443560427,37.40230835077086],[-120.7698905892875,37.40160677911173],[-120.7706244149871,37.40129034615278],[-120.7721110304771,37.40105734447636],[-120.7730150417712,37.40120314967267],[-120.7736862262496,37.40132803372367],[-120.7740521265179,37.40135687890884],[-120.7748624673375,37.40122733852807],[-120.7749083243662,37.39983121561715]]]},"properties":{"fieldId":16,"block":"Blue Lupin Block 19","agencyName":"Turlock Irrigation District","agencyUniqueId":2525,"source":"SCRO","dateApplies":"2013-11-07","category":"irrigation_district","acres":34.202}},{"type":"Feature","geometry":{"type":"Polygon","coordinates":[[[-120.7686466415547,37.39925380509102],[-120.7653504190316,37.39972306612433],[-120.765356984362,37.40102493446057],[-120.7654924028311,37.40117543721298],[-120.7654328548576,37.40195485009125],[-120.7662092635123,37.40194074232969],[-120.7667283622097,37.40212866726876],[-120.7669324450527,37.40239312676525],[-120.7668534458494,37.40323081706239],[-120.7672792502202,37.40324234882351],[-120.7685962735591,37.40246654416539],[-120.7686466415547,37.39925380509102]]]},"properties":{"fieldId":17,"block":"Blue Lupin Block 21","agencyName":"Turlock Irrigation District","agencyUniqueId":2525,"source":"SCRO","dateApplies":"2013-11-07","category":"irrigation_district","acres":23.676}},{"type":"Feature","geometry":{"type":"Polygon","coordinates":[[[-120.7652695045518,37.39975667900551],[-120.7620528325685,37.40016219170208],[-120.7610737335014,37.40020512224303],[-120.7596416056414,37.40039012362703],[-120.7596456382098,37.40317272356682],[-120.7619022666313,37.40319545271725],[-120.7620057366647,37.40145701096157],[-120.7652635667839,37.40151102674403],[-120.7652695045518,37.39975667900551]]]},"properties":{"fieldId":18,"block":"Blue Lupin Block 10","agencyName":"Turlock Irrigation District","agencyUniqueId":2525,"source":"SCRO","dateApplies":"2013-11-07","category":"irrigation_district","acres":28.695}},{"type":"Feature","geometry":{"type":"Polygon","coordinates":[[[-120.7666923688584,37.40376781604056],[-120.7666129260751,37.40308996782239],[-120.7661780670868,37.40291041964666],[-120.7652965013339,37.4027129249743],[-120.764477109918,37.40276680931949],[-120.7645000563792,37.40159936426886],[-120.7620641622426,37.40157722531573],[-120.7619567819776,37.40319776794208],[-120.7596557113747,37.40327861570658],[-120.759583282064,37.40481828424411],[-120.7657486826136,37.40482277428909],[-120.7666923688584,37.40376781604056]]]},"properties":{"fieldId":19,"block":"Blue Lupin Block 8/9","agencyName":"Turlock Irrigation District","agencyUniqueId":2525,"source":"SCRO","dateApplies":"2013-11-07","category":"irrigation_district","acres":38.077}},{"type":"Feature","geometry":{"type":"Polygon","coordinates":[[[-120.5942314782532,37.43308257125052],[-120.5933379954388,37.43302123336296],[-120.5919316402181,37.43306754336435],[-120.5918762882041,37.43648525882291],[-120.5932697640711,37.4364911237931],[-120.5937090724861,37.43634186409912],[-120.5941439669437,37.43636929890914],[-120.5942314782532,37.43308257125052]]]},"properties":{"fieldId":20,"block":"Fagundes Block 64A","agencyName":"Merced Irrigation District","agencyUniqueId":1591,"source":"SERYSIAN","dateApplies":"2016-08-05","category":"irrigation_district","acres":18.88}},{"type":"Feature","geometry":{"type":"Polygon","coordinates":[[[-120.5918084841752,37.43309932051705],[-120.5894354349434,37.43308884600511],[-120.5894121333754,37.43477507976373],[-120.5894493570178,37.43648756905141],[-120.5917789147502,37.4365200793],[-120.5918084841752,37.43309932051705]]]},"properties":{"fieldId":21,"block":"Fagundes Block 64B","agencyName":"Merced Irrigation District","agencyUniqueId":1591,"source":"SERYSIAN","dateApplies":"2016-08-05","category":"irrigation_district","acres":19.619}},{"type":"Feature","geometry":{"type":"Polygon","coordinates":[[[-120.5893840029044,37.43472661883266],[-120.5893790935554,37.4330367122031],[-120.5865795889962,37.43300866932452],[-120.5862858094034,37.43325110933441],[-120.5861829671811,37.43473500557415],[-120.5893840029044,37.43472661883266]]]},"properties":{"fieldId":22,"block":"Fagundes Block 65B","agencyName":"Merced Irrigation District","agencyUniqueId":1591,"source":"SERYSIAN","dateApplies":"2016-08-05","category":"irrigation_district","acres":12.965}},{"type":"Feature","geometry":{"type":"Polygon","coordinates":[[[-120.58942867938,37.4347675570264],[-120.5862672646496,37.43476475603305],[-120.5862578625711,37.43645306217785],[-120.5893870081135,37.43649852025504],[-120.58942867938,37.4347675570264]]]},"properties":{"fieldId":23,"block":"Fagundes Block 65A","agencyName":"Merced Irrigation District","agencyUniqueId":1591,"source":"SERYSIAN","dateApplies":"2016-08-05","category":"irrigation_district","acres":13.076}},{"type":"Feature","geometry":{"type":"Polygon","coordinates":[[[-120.5826365535194,37.43302540747285],[-120.5805586153781,37.43301730052407],[-120.5805346984426,37.43628485232954],[-120.5808042632156,37.43645022127101],[-120.5824422759318,37.43647186487706],[-120.5826302164313,37.4363826129812],[-120.5826365535194,37.43302540747285]]]},"properties":{"fieldId":24,"block":"Fagundes Block 67A","agencyName":"Merced Irrigation District","agencyUniqueId":1591,"source":"SERYSIAN","dateApplies":"2016-08-05","category":"irrigation_district","acres":17.38}},{"type":"Feature","geometry":{"type":"Polygon","coordinates":[[[-120.5826184018498,37.43758535282432],[-120.5825887891846,37.43656800974497],[-120.5806014549755,37.43661746703966],[-120.5792433683076,37.43660080573589],[-120.5760659594338,37.43656755314453],[-120.5760607138908,37.4375248604975],[-120.5826184018498,37.43758535282432]]]},"properties":{"fieldId":25,"block":"Fagundes Block 67B","agencyName":"Merced Irrigation District","agencyUniqueId":1591,"source":"SERYSIAN","dateApplies":"2016-08-05","category":"irrigation_district","acres":15.316}},{"type":"Feature","geometry":{"type":"Polygon","coordinates":[[[-120.5894946422302,37.44010184875219],[-120.5854044838119,37.43664545590173],[-120.584909160196,37.43661419394734],[-120.5848035394428,37.44003808525138],[-120.5894946422302,37.44010184875219]]]},"properties":{"fieldId":26,"block":"Fagundes Block 70A","agencyName":"Merced Irrigation District","agencyUniqueId":1591,"source":"SERYSIAN","dateApplies":"2016-08-05","category":"irrigation_district","acres":21.46}},{"type":"Feature","geometry":{"type":"Polygon","coordinates":[[[-120.5848497003635,37.436624479824],[-120.5828161312123,37.43659358333228],[-120.5828684288473,37.43997014746077],[-120.5848035394115,37.44004332777447],[-120.5848497003635,37.436624479824]]]},"properties":{"fieldId":27,"block":"Fagundes Block 70B","agencyName":"Merced Irrigation District","agencyUniqueId":1591,"source":"SERYSIAN","dateApplies":"2016-08-05","category":"irrigation_district","acres":16.392}},{"type":"Feature","geometry":{"type":"Polygon","coordinates":[[[-120.5848959144819,37.44013537885455],[-120.5827950012177,37.44008288415317],[-120.5828484045201,37.44165317890828],[-120.584541117106,37.4422675191466],[-120.5848784983568,37.44206296360438],[-120.5848959144819,37.44013537885455]]]},"properties":{"fieldId":28,"block":"Fagundes Block 71","agencyName":"Merced Irrigation District","agencyUniqueId":1591,"source":"SERYSIAN","dateApplies":"2016-08-05","category":"irrigation_district","acres":9.446}},{"type":"Feature","geometry":{"type":"Polygon","coordinates":[[[-120.5827352976448,37.43941665913105],[-120.5827220800053,37.43770228349997],[-120.5793219372029,37.43774434938859],[-120.5793545745157,37.43933798587803],[-120.5796781146502,37.43955818811346],[-120.5793215468099,37.43989371356886],[-120.582708894042,37.43991472442683],[-120.582471179958,37.43966306834551],[-120.5827352976448,37.43941665913105]]]},"properties":{"fieldId":29,"block":"Fagundes Block 72A","agencyName":"Merced Irrigation District","agencyUniqueId":1591,"source":"SERYSIAN","dateApplies":"2016-08-05","category":"irrigation_district","acres":17.593}},{"type":"Feature","geometry":{"type":"Polygon","coordinates":[[[-120.5827419189521,37.43991997923362],[-120.5792425919487,37.43990937165759],[-120.5792952395359,37.44050705463567],[-120.5823921187716,37.44151567851429],[-120.5827155036218,37.44138268899793],[-120.5827419189521,37.43991997923362]]]},"properties":{"fieldId":30,"block":"Fagundes Block 72B","agencyName":"Merced Irrigation District","agencyUniqueId":1591,"source":"SERYSIAN","dateApplies":"2016-08-05","category":"irrigation_district","acres":9.549}},{"type":"Feature","geometry":{"type":"Polygon","coordinates":[[[-120.5792634439641,37.4376766783028],[-120.5760483187386,37.43769729502115],[-120.575928579206,37.43951086202342],[-120.5764169144507,37.43974674685343],[-120.5770111179781,37.4398620263508],[-120.5791233477268,37.44051704922595],[-120.5792357475634,37.44013488697079],[-120.5792634439641,37.4376766783028]]]},"properties":{"fieldId":31,"block":"Fagundes Block 73","agencyName":"Merced Irrigation District","agencyUniqueId":1591,"source":"SERYSIAN","dateApplies":"2016-08-05","category":"irrigation_district","acres":18.753}},{"type":"Feature","geometry":{"type":"Polygon","coordinates":[[[-120.5809255447521,37.44124377839992],[-120.5788263261838,37.44057305613678],[-120.5782521621021,37.44390054023409],[-120.5807469341461,37.44472835268023],[-120.5808593799907,37.44422086452531],[-120.5809255447521,37.44124377839992]]]},"properties":{"fieldId":32,"block":"Fagundes Block 74A","agencyName":"Merced Irrigation District","agencyUniqueId":1591,"source":"SERYSIAN","dateApplies":"2016-08-05","category":"irrigation_district","acres":20.073}},{"type":"Feature","geometry":{"type":"Polygon","coordinates":[[[-120.5788338078122,37.44057026379929],[-120.5768014496582,37.43999742384408],[-120.5762526173467,37.43991819759781],[-120.5758867179003,37.44005198019501],[-120.5758225514678,37.4429768043333],[-120.5761785020626,37.44302787242141],[-120.5760746112019,37.44330677977893],[-120.5782454107243,37.44393485936126],[-120.5788338078122,37.44057026379929]]]},"properties":{"fieldId":33,"block":"Fagundes Block 74B","agencyName":"Merced Irrigation District","agencyUniqueId":1591,"source":"SERYSIAN","dateApplies":"2016-08-05","category":"irrigation_district","acres":22.561}},{"type":"Feature","geometry":{"type":"Polygon","coordinates":[[[-120.5757707350097,37.44382268445965],[-120.5714016148089,37.4438938661918],[-120.5714004632005,37.44495931727577],[-120.5757666750324,37.44490790905053],[-120.5757707350097,37.44382268445965]]]},"properties":{"fieldId":34,"block":"Fagundes Block 76A","agencyName":"Merced Irrigation District","agencyUniqueId":1591,"source":"SERYSIAN","dateApplies":"2016-08-05","category":"irrigation_district","acres":11.418}},{"type":"Feature","geometry":{"type":"Polygon","coordinates":[[[-120.5757180725115,37.443825802273],[-120.5756844305545,37.44191855972772],[-120.5713453171669,37.44202112448745],[-120.5714088512321,37.44389084709341],[-120.5757180725115,37.443825802273]]]},"properties":{"fieldId":35,"block":"Fagundes Block 76B","agencyName":"Merced Irrigation District","agencyUniqueId":1591,"source":"SERYSIAN","dateApplies":"2016-08-05","category":"irrigation_district","acres":19.863}},{"type":"Feature","geometry":{"type":"Polygon","coordinates":[[[-120.5860283438343,37.43302202144262],[-120.5854289618227,37.43301411753642],[-120.5849426683511,37.43301703781162],[-120.5828921811236,37.43312053467888],[-120.582884914881,37.43363351793342],[-120.5827941763576,37.43396493722967],[-120.5828193607422,37.43652711270437],[-120.5852988205616,37.43655622385133],[-120.5855456004236,37.43637162562759],[-120.586021825828,37.43634264656122],[-120.5860283438343,37.43302202144262]]]},"properties":{"fieldId":36,"block":"Fagundes Block 66","agencyName":"Merced Irrigation District","agencyUniqueId":1591,"source":"SERYSIAN","dateApplies":"2016-08-05","category":"irrigation_district","acres":26.911}},{"type":"Feature","geometry":{"type":"Polygon","coordinates":[[[-120.5917795310338,37.43654898980333],[-120.5863079665349,37.43649820026462],[-120.5863139332497,37.43707051395711],[-120.5897337369132,37.44001738493868],[-120.5917671554351,37.44007765792249],[-120.5917795310338,37.43654898980333]]]},"properties":{"fieldId":37,"block":"Fagundes Block 68","agencyName":"Merced Irrigation District","agencyUniqueId":1591,"source":"SERYSIAN","dateApplies":"2016-08-05","category":"irrigation_district","acres":34.279}},{"type":"Feature","geometry":{"type":"Polygon","coordinates":[[[-120.5757826158831,37.44703325020982],[-120.5757278817733,37.44500120948697],[-120.5714271669254,37.4450148939174],[-120.5713320762851,37.44720563783469],[-120.5716571995732,37.44742495947659],[-120.5756661488979,37.4473632045679],[-120.5757826158831,37.44703325020982]]]},"properties":{"fieldId":38,"block":"Fagundes Block 75","agencyName":"Merced Irrigation District","agencyUniqueId":1591,"source":"SERYSIAN","dateApplies":"2016-08-05","category":"irrigation_district","acres":25.309}},{"type":"Feature","geometry":{"type":"Polygon","coordinates":[[[-120.5757431711739,37.44189450148148],[-120.5757077532028,37.43991519485589],[-120.5749987337412,37.43983341879289],[-120.5741619479733,37.43957497227848],[-120.5732510670683,37.43933977557064],[-120.5724476179197,37.43906826303042],[-120.5717435365447,37.43887918646556],[-120.571356228829,37.43891500247487],[-120.571446356472,37.44193077798071],[-120.5757431711739,37.44189450148148]]]},"properties":{"fieldId":39,"block":"Fagundes Block 77","agencyName":"Merced Irrigation District","agencyUniqueId":1591,"source":"SERYSIAN","dateApplies":"2016-08-05","category":"irrigation_district","acres":26.366}},{"type":"Feature","geometry":{"type":"Polygon","coordinates":[[[-120.5884074696099,37.42938016495698],[-120.5867554804247,37.42934144418825],[-120.5864238295443,37.42950882984135],[-120.5864274289218,37.43134377200663],[-120.5863025957145,37.4321846121592],[-120.5863024813885,37.43275448229738],[-120.5880257831922,37.43276580650305],[-120.5884039807575,37.43268647326362],[-120.5884074696099,37.42938016495698]]]},"properties":{"fieldId":40,"block":"Fagundes Block 61","agencyName":"Merced Irrigation District","agencyUniqueId":1591,"source":"SERYSIAN","dateApplies":"2016-08-05","category":"irrigation_district","acres":16.581}},{"type":"Feature","geometry":{"type":"Polygon","coordinates":[[[-120.5862940431312,37.43268327023043],[-120.5862861720332,37.42937747755654],[-120.5857996650559,37.42929457759255],[-120.5850214544874,37.42932571654512],[-120.5849520795525,37.42865263671307],[-120.5837968297003,37.428568788531],[-120.5833995658518,37.42868008057444],[-120.583352275592,37.43211078363733],[-120.5837616331965,37.43217579905597],[-120.583776308145,37.43240483567317],[-120.584082999514,37.43245925348216],[-120.5840490168054,37.43278345238735],[-120.5859454269649,37.43282048192203],[-120.5862940431312,37.43268327023043]]]},"properties":{"fieldId":41,"block":"Fagundes Block 62","agencyName":"Merced Irrigation District","agencyUniqueId":1591,"source":"SERYSIAN","dateApplies":"2016-08-05","category":"irrigation_district","acres":26.493}},{"type":"Feature","geometry":{"type":"Polygon","coordinates":[[[-120.5834094977346,37.42868149649404],[-120.5822465630625,37.42780777803443],[-120.581511174081,37.42787828721146],[-120.5809384048712,37.42787257051488],[-120.5805251395971,37.42824425789874],[-120.5805245226745,37.42881241129604],[-120.5807356909747,37.42920136391977],[-120.5806261214311,37.43274337969304],[-120.5828387072669,37.43281622723415],[-120.5832183683101,37.43271642782705],[-120.5832574594015,37.43215184317162],[-120.5833400194462,37.43180087927689],[-120.5834094977346,37.42868149649404]]]},"properties":{"fieldId":42,"block":"Fagundes Block 63","agencyName":"Merced Irrigation District","agencyUniqueId":1591,"source":"SERYSIAN","dateApplies":"2016-08-05","category":"irrigation_district","acres":31.143}},{"type":"Feature","geometry":{"type":"Polygon","coordinates":[[[-120.5918765628275,37.42963150774129],[-120.5916292607166,37.42936939882044],[-120.5885784913467,37.42937887921684],[-120.5885489792007,37.43108223846097],[-120.5887167850227,37.43112349635295],[-120.5887044482379,37.43134606772293],[-120.5885026339625,37.43134633571334],[-120.5885170369783,37.43282319841224],[-120.5918248804073,37.43281715048488],[-120.5918765628275,37.42963150774129]]]},"properties":{"fieldId":43,"block":"Fagundes Block 60","agencyName":"Merced Irrigation District","agencyUniqueId":1591,"source":"SERYSIAN","dateApplies":"2016-08-05","category":"irrigation_district","acres":27.589}},{"type":"Feature","geometry":{"type":"Polygon","coordinates":[[[-120.5934483446738,37.47528099242804],[-120.5933007969337,37.47484085585876],[-120.5931772874776,37.47445576829244],[-120.5930413352856,37.47393332549611],[-120.5929135079537,37.47352706107482],[-120.592834769152,37.47303637000764],[-120.592118997156,37.47286231824154],[-120.5913837690788,37.47284304756204],[-120.5904869211841,37.47297350693662],[-120.5893363409972,37.47329539961338],[-120.5889512177337,37.47386973598421],[-120.58834173576165,37.474246009487004],[-120.58837774237539,37.47658198731347],[-120.5884423000157,37.47658190907115],[-120.5925503861336,37.47559317310607],[-120.5925885659627,37.4753639881107],[-120.5929473217961,37.47534556594067],[-120.5931635579265,37.47544332138416],[-120.5934483446738,37.47528099242804]]]},"properties":{"fieldId":44,"block":"Fagundes Mello","agencyName":"Merced Irrigation District","agencyUniqueId":1591,"source":"SERYSIAN","dateApplies":"2016-08-05","category":"irrigation_district","acres":32.927}},{"type":"Feature","geometry":{"type":"Polygon","coordinates":[[[-120.585727053777,37.40216469968808],[-120.5856776985036,37.40048482225149],[-120.5844873606384,37.40036904779361],[-120.5811593550937,37.40037313742697],[-120.5811243177676,37.40199183775227],[-120.5814558353035,37.40215233549961],[-120.5833946230931,37.40212140021284],[-120.5848448519928,37.40210827783245],[-120.585727053777,37.40216469968808]]]},"properties":{"fieldId":45,"block":"Fagundes Angel Ranch","agencyName":"Merced Irrigation District","agencyUniqueId":1591,"source":"SERYSIAN","dateApplies":"2016-08-05","category":"irrigation_district","acres":19.294}},{"type":"Feature","geometry":{"type":"Polygon","coordinates":[[[-120.58245830667315,37.400371541204954],[-120.58118833557639,37.40037310181418],[-120.58118677732114,37.40044242638858],[-120.58245830667315,37.400371541204954]]]},"properties":{"fieldId":45,"block":"Fagundes Angel Ranch","agencyName":"US Air Force Castle Air Force Base","agencyUniqueId":2546,"source":"CDPH","dateApplies":"2013-06-14","category":"federal","acres":0.107}}]}