{"type":"FeatureCollection","metadata":{"source":"USDA NRCS Soil Data Access (SDA) — SSURGO","sourceUrl":"https://sdmdataaccess.nrcs.usda.gov/Tabular/post.rest","retrievedAt":"2026-05-03T20:52:09.833Z","method":"SDA_Get_Mukey_from_intersection_with_WktWgs84 + SDA_Get_Mupolygonkey_from_intersection_with_WktWgs84; clipped to field polygons via polygon-clipping (Greiner-Hormann)","aoiBbox":[-120.78271166048839,37.3586295202637,-120.56633207628511,37.48158237622651],"caveat":"Soil survey lines are approximate and not a substitute for on-site sampling.","polygonCount":93,"mapUnitCount":96,"fieldCount":45},"features":[{"type":"Feature","geometry":{"type":"Polygon","coordinates":[[[-120.7774588262209,37.40725631872299],[-120.7730893897808,37.4072240273801],[-120.7729614973434,37.41020648173712],[-120.7730511104436,37.41036619620408],[-120.7773642241613,37.41040360148376],[-120.7774588262209,37.40725631872299]]]},"properties":{"fieldId":1,"block":"Johnston Block 1","mukey":"463004","musym":"DgA","muname":"Delhi sand, silty substratum, 0 to 3 percent slopes","areasymbol":"CA648","dominantComponent":"Delhi","drainageClass":"Somewhat excessively drained","hydrologicGroup":"A","taxOrder":"Entisols","acres":33.562}},{"type":"Feature","geometry":{"type":"Polygon","coordinates":[[[-120.77520609198,37.4066809093316],[-120.775200054278,37.4065731927163],[-120.775006505431,37.4062478719182],[-120.774750736705,37.4059512377442],[-120.774683867544,37.4058174296834],[-120.774562821474,37.4053966288975],[-120.774472073493,37.4052308636363],[-120.774358847003,37.4050753312722],[-120.77435016306197,37.40505927867658],[-120.7741154538287,37.40505207678186],[-120.7740879320429,37.40539958521321],[-120.7739578282118,37.40553566372317],[-120.773125919115,37.40555386634091],[-120.77309239637252,37.40681432699042],[-120.773244716992,37.4068621627631],[-120.773461446764,37.4069092828378],[-120.77382216831,37.406935585527],[-120.774039486581,37.4069844289235],[-120.774288252861,37.4070701142823],[-120.774417997488,37.4070975230789],[-120.774731695297,37.4070689906736],[-120.775048391131,37.4069280843055],[-120.775145944978,37.406854157935],[-120.77520609198,37.4066809093316]]]},"properties":{"fieldId":2,"block":"Johnston Block 2","mukey":"2766108","musym":"DfA","muname":"Delhi sand, 0 to 3 percent slopes","areasymbol":"CA648","dominantComponent":"Delhi","drainageClass":"Somewhat excessively drained","hydrologicGroup":"A","taxOrder":"Entisols","acres":6.918}},{"type":"Feature","geometry":{"type":"Polygon","coordinates":[[[-120.7775164518144,37.40518911870875],[-120.7771707680162,37.40512846743876],[-120.7755956710842,37.40509653009134],[-120.7751395834078,37.40508350150814],[-120.77435016306197,37.40505927867658],[-120.774358847003,37.4050753312722],[-120.774472073493,37.4052308636363],[-120.774562821474,37.4053966288975],[-120.774683867544,37.4058174296834],[-120.774750736705,37.4059512377442],[-120.775006505431,37.4062478719182],[-120.775200054278,37.4065731927163],[-120.77520609198,37.4066809093316],[-120.775145944978,37.406854157935],[-120.775048391131,37.4069280843055],[-120.774731695297,37.4070689906736],[-120.774417997488,37.4070975230789],[-120.774288252861,37.4070701142823],[-120.774039486581,37.4069844289235],[-120.77382216831,37.406935585527],[-120.773461446764,37.4069092828378],[-120.773244716992,37.4068621627631],[-120.77309239637252,37.40681432699042],[-120.7730834223982,37.40715174990564],[-120.7774600089149,37.40716444490492],[-120.7775164518144,37.40518911870875]]]},"properties":{"fieldId":2,"block":"Johnston Block 2","mukey":"463004","musym":"DgA","muname":"Delhi sand, silty substratum, 0 to 3 percent slopes","areasymbol":"CA648","dominantComponent":"Delhi","drainageClass":"Somewhat excessively drained","hydrologicGroup":"A","taxOrder":"Entisols","acres":13.98}},{"type":"Feature","geometry":{"type":"Polygon","coordinates":[[[-120.773069146482,37.40514190313559],[-120.7728893809373,37.40509578557229],[-120.77194438119868,37.40508849979969],[-120.77196538726,37.4051731328681],[-120.771899206719,37.4053079262724],[-120.771844724842,37.4056674650182],[-120.771846205594,37.4058103022013],[-120.771941285887,37.4060130286726],[-120.772015052565,37.406104762692],[-120.772267056376,37.4063107572127],[-120.772435895163,37.4064805434586],[-120.772866649335,37.4067434319008],[-120.77303051356141,37.40679489290399],[-120.773069146482,37.40514190313559]]]},"properties":{"fieldId":3,"block":"Johnston Block 3A","mukey":"2766108","musym":"DfA","muname":"Delhi sand, 0 to 3 percent slopes","areasymbol":"CA648","dominantComponent":"Delhi","drainageClass":"Somewhat excessively drained","hydrologicGroup":"A","taxOrder":"Entisols","acres":3.842}},{"type":"Feature","geometry":{"type":"Polygon","coordinates":[[[-120.77303051356141,37.40679489290399],[-120.772866649335,37.4067434319008],[-120.772435895163,37.4064805434586],[-120.772267056376,37.4063107572127],[-120.772015052565,37.406104762692],[-120.771941285887,37.4060130286726],[-120.771846205594,37.4058103022013],[-120.771844724842,37.4056674650182],[-120.771899206719,37.4053079262724],[-120.77196538726,37.4051731328681],[-120.77194438119868,37.40508849979969],[-120.7705558164958,37.40507779422353],[-120.7705086222073,37.40852828679454],[-120.7707515480407,37.40850094117642],[-120.7729901810447,37.40852060342349],[-120.77303051356141,37.40679489290399]]]},"properties":{"fieldId":3,"block":"Johnston Block 3A","mukey":"463004","musym":"DgA","muname":"Delhi sand, silty substratum, 0 to 3 percent slopes","areasymbol":"CA648","dominantComponent":"Delhi","drainageClass":"Somewhat excessively drained","hydrologicGroup":"A","taxOrder":"Entisols","acres":16.952}},{"type":"Feature","geometry":{"type":"Polygon","coordinates":[[[-120.7705470299572,37.40510106813397],[-120.7686714422769,37.4050530332243],[-120.7685776268531,37.40848750039695],[-120.7704799835933,37.4085082222033],[-120.7705470299572,37.40510106813397]]]},"properties":{"fieldId":4,"block":"Johnston Block 3B","mukey":"463004","musym":"DgA","muname":"Delhi sand, silty substratum, 0 to 3 percent slopes","areasymbol":"CA648","dominantComponent":"Delhi","drainageClass":"Somewhat excessively drained","hydrologicGroup":"A","taxOrder":"Entisols","acres":15.724}},{"type":"Feature","geometry":{"type":"Polygon","coordinates":[[[-120.76563902980934,37.40665656455249],[-120.765509989628,37.4062394195462],[-120.765323021857,37.4059921408405],[-120.76520091854837,37.40590103897015],[-120.764691935405,37.40647731537217],[-120.7647342855366,37.4066538351988],[-120.76563902980934,37.40665656455249]]]},"properties":{"fieldId":5,"block":"Johnston Block 4","mukey":"2766108","musym":"DfA","muname":"Delhi sand, 0 to 3 percent slopes","areasymbol":"CA648","dominantComponent":"Delhi","drainageClass":"Somewhat excessively drained","hydrologicGroup":"A","taxOrder":"Entisols","acres":1.089}},{"type":"Feature","geometry":{"type":"Polygon","coordinates":[[[-120.7684273089563,37.40503362462687],[-120.7659933362285,37.40500385481869],[-120.76520091854837,37.40590103897015],[-120.765323021857,37.4059921408405],[-120.765509989628,37.4062394195462],[-120.76563902980934,37.40665656455249],[-120.7683711744362,37.40666480664833],[-120.7684273089563,37.40503362462687]]]},"properties":{"fieldId":5,"block":"Johnston Block 4","mukey":"463004","musym":"DgA","muname":"Delhi sand, silty substratum, 0 to 3 percent slopes","areasymbol":"CA648","dominantComponent":"Delhi","drainageClass":"Somewhat excessively drained","hydrologicGroup":"A","taxOrder":"Entisols","acres":11.412}},{"type":"Feature","geometry":{"type":"Polygon","coordinates":[[[-120.7696217469792,37.40219019639378],[-120.7670088535289,37.40392389048751],[-120.7669151792914,37.40423431534131],[-120.7666588709994,37.40431117072369],[-120.766253047581,37.4048367390366],[-120.7695013075513,37.40487029009856],[-120.7696217469792,37.40219019639378]]]},"properties":{"fieldId":6,"block":"Johnston Block 5A","mukey":"463004","musym":"DgA","muname":"Delhi sand, silty substratum, 0 to 3 percent slopes","areasymbol":"CA648","dominantComponent":"Delhi","drainageClass":"Somewhat excessively drained","hydrologicGroup":"A","taxOrder":"Entisols","acres":11.845}},{"type":"Feature","geometry":{"type":"Polygon","coordinates":[[[-120.772775457098,37.40488833333547],[-120.77127960960685,37.403209093802516],[-120.771054144255,37.4031994908325],[-120.77092455885,37.4032348463745],[-120.770803055312,37.4032869855604],[-120.770764934768,37.4033863697182],[-120.770762593508,37.4035318512468],[-120.770799853471,37.4037484911881],[-120.770835122607,37.403851953427],[-120.770943638219,37.4040075468142],[-120.77177118912,37.4047731405404],[-120.77183241685802,37.40488120712962],[-120.772775457098,37.40488833333547]]]},"properties":{"fieldId":7,"block":"Johnston Block 5B","mukey":"2766108","musym":"DfA","muname":"Delhi sand, 0 to 3 percent slopes","areasymbol":"CA648","dominantComponent":"Delhi","drainageClass":"Somewhat excessively drained","hydrologicGroup":"A","taxOrder":"Entisols","acres":3.659}},{"type":"Feature","geometry":{"type":"Polygon","coordinates":[[[-120.77183241685802,37.40488120712962],[-120.77177118912,37.4047731405404],[-120.770943638219,37.4040075468142],[-120.770835122607,37.403851953427],[-120.770799853471,37.4037484911881],[-120.770762593508,37.4035318512468],[-120.770764934768,37.4033863697182],[-120.770803055312,37.4032869855604],[-120.77092455885,37.4032348463745],[-120.771054144255,37.4031994908325],[-120.77127960960685,37.403209093802516],[-120.7706836174851,37.40254003259267],[-120.7706615759357,37.40159441014536],[-120.7696312859731,37.40214619108671],[-120.7695863562087,37.40486423448109],[-120.77183241685802,37.40488120712962]]]},"properties":{"fieldId":7,"block":"Johnston Block 5B","mukey":"463004","musym":"DgA","muname":"Delhi sand, silty substratum, 0 to 3 percent slopes","areasymbol":"CA648","dominantComponent":"Delhi","drainageClass":"Somewhat excessively drained","hydrologicGroup":"A","taxOrder":"Entisols","acres":10.088}},{"type":"Feature","geometry":{"type":"Polygon","coordinates":[[[-120.77532409872822,37.401574687724995],[-120.77517309813291,37.401455135902204],[-120.7744577896318,37.40157873687607],[-120.7735662920052,37.40159545618055],[-120.7726488884812,37.40142655783476],[-120.77195258263617,37.401432890616164],[-120.772212585495,37.4016084513893],[-120.773705615858,37.4024115303763],[-120.774698207679,37.4028406643601],[-120.775186983682,37.4031006666707],[-120.77530273466034,37.4031468279641],[-120.77532409872822,37.401574687724995]]]},"properties":{"fieldId":8,"block":"Johnston Block 56/58","mukey":"2766108","musym":"DfA","muname":"Delhi sand, 0 to 3 percent slopes","areasymbol":"CA648","dominantComponent":"Delhi","drainageClass":"Somewhat excessively drained","hydrologicGroup":"A","taxOrder":"Entisols","acres":6.705}},{"type":"Feature","geometry":{"type":"Polygon","coordinates":[[[-120.77428049693859,37.40493049819502],[-120.774157733774,37.4047035658112],[-120.773881914444,37.4043723281785],[-120.773761129109,37.4042673204634],[-120.773493634365,37.4041301332111],[-120.773142751142,37.4039041440621],[-120.772452687851,37.4036353502349],[-120.772184169647,37.4035020687538],[-120.772041864928,37.4034135571234],[-120.771677699198,37.4032697605165],[-120.77135584457986,37.403216452021354],[-120.7724429997524,37.40439692212339],[-120.7730102587141,37.40444915476115],[-120.7734348524751,37.40440715706657],[-120.7734348814248,37.40490826061593],[-120.77428049693859,37.40493049819502]]]},"properties":{"fieldId":8,"block":"Johnston Block 56/58","mukey":"2766108","musym":"DfA","muname":"Delhi sand, 0 to 3 percent slopes","areasymbol":"CA648","dominantComponent":"Delhi","drainageClass":"Somewhat excessively drained","hydrologicGroup":"A","taxOrder":"Entisols","acres":3.595}},{"type":"Feature","geometry":{"type":"MultiPolygon","coordinates":[[[[-120.7753260825638,37.40142870111971],[-120.77517309813291,37.401455135902204],[-120.77532409872822,37.401574687724995],[-120.7753260825638,37.40142870111971]]],[[[-120.77530273466034,37.4031468279641],[-120.775186983682,37.4031006666707],[-120.774698207679,37.4028406643601],[-120.773705615858,37.4024115303763],[-120.772212585495,37.4016084513893],[-120.77195258263617,37.401432890616164],[-120.7716396244263,37.40143573691704],[-120.7707152861212,37.40156401320835],[-120.7707207343758,37.40252682773743],[-120.77135584457986,37.403216452021354],[-120.771677699198,37.4032697605165],[-120.772041864928,37.4034135571234],[-120.772184169647,37.4035020687538],[-120.772452687851,37.4036353502349],[-120.773142751142,37.4039041440621],[-120.773493634365,37.4041301332111],[-120.773761129109,37.4042673204634],[-120.773881914444,37.4043723281785],[-120.774157733774,37.4047035658112],[-120.77428049693859,37.40493049819502],[-120.7752781395586,37.40495673370786],[-120.77530273466034,37.4031468279641]]]]},"properties":{"fieldId":8,"block":"Johnston Block 56/58","mukey":"463004","musym":"DgA","muname":"Delhi sand, silty substratum, 0 to 3 percent slopes","areasymbol":"CA648","dominantComponent":"Delhi","drainageClass":"Somewhat excessively drained","hydrologicGroup":"A","taxOrder":"Entisols","acres":20.52}},{"type":"Feature","geometry":{"type":"Polygon","coordinates":[[[-120.65697675392722,37.36662297473657],[-120.656828694437,37.3664495221227],[-120.656750538809,37.3663198906725],[-120.656693703307,37.3660722707147],[-120.656717756664,37.3658927804885],[-120.656750365669,37.3657872179732],[-120.65678149720772,37.36572603735016],[-120.6526101917561,37.36571826057524],[-120.6525368407216,37.3673447931334],[-120.6530965928591,37.36735850108173],[-120.6531104075042,37.3675754245315],[-120.6569239430763,37.36756723620872],[-120.65697675392722,37.36662297473657]]]},"properties":{"fieldId":9,"block":"Johnston Block 36A","mukey":"462964","musym":"AnA","muname":"Atwater sand, 0 to 3 percent slopes","areasymbol":"CA648","dominantComponent":"Atwater","drainageClass":"Well drained","hydrologicGroup":"A","taxOrder":"Alfisols","acres":19.015}},{"type":"Feature","geometry":{"type":"Polygon","coordinates":[[[-120.6570268924396,37.36572649485285],[-120.65678149720772,37.36572603735016],[-120.656750365669,37.3657872179732],[-120.656717756664,37.3658927804885],[-120.656693703307,37.3660722707147],[-120.656750538809,37.3663198906725],[-120.656828694437,37.3664495221227],[-120.65697675392722,37.36662297473657],[-120.6570268924396,37.36572649485285]]]},"properties":{"fieldId":9,"block":"Johnston Block 36A","mukey":"462965","musym":"AnB","muname":"Atwater sand, 3 to 8 percent slopes","areasymbol":"CA648","dominantComponent":"Atwater","drainageClass":"Well drained","hydrologicGroup":"A","taxOrder":"Alfisols","acres":0.51}},{"type":"Feature","geometry":{"type":"Polygon","coordinates":[[[-120.6570764851446,37.36414945172374],[-120.6553143227895,37.3636295202637],[-120.6549444225318,37.36362982075811],[-120.6549478692193,37.36403939870173],[-120.6540045096227,37.364028655785],[-120.6530540090931,37.36407785664208],[-120.653126343126,37.36430838810237],[-120.6532579367767,37.36449814364691],[-120.6532959416124,37.36504474061245],[-120.6531369519657,37.36513456513748],[-120.6527187938872,37.36518675636916],[-120.6526118075677,37.36543403364272],[-120.6526081900061,37.36570862234714],[-120.65678335637003,37.36572238366927],[-120.656801323003,37.3656870751094],[-120.65693913193,37.3655439572338],[-120.65702953725663,37.36549157634586],[-120.6570764851446,37.36414945172374]]]},"properties":{"fieldId":10,"block":"Johnston Block 36B","mukey":"462964","musym":"AnA","muname":"Atwater sand, 0 to 3 percent slopes","areasymbol":"CA648","dominantComponent":"Atwater","drainageClass":"Well drained","hydrologicGroup":"A","taxOrder":"Alfisols","acres":17.357}},{"type":"Feature","geometry":{"type":"Polygon","coordinates":[[[-120.65702953725663,37.36549157634586],[-120.65693913193,37.3655439572338],[-120.656801323003,37.3656870751094],[-120.65678335637003,37.36572238366927],[-120.6570214361037,37.36572316837858],[-120.65702953725663,37.36549157634586]]]},"properties":{"fieldId":10,"block":"Johnston Block 36B","mukey":"462965","musym":"AnB","muname":"Atwater sand, 3 to 8 percent slopes","areasymbol":"CA648","dominantComponent":"Atwater","drainageClass":"Well drained","hydrologicGroup":"A","taxOrder":"Alfisols","acres":0.08}},{"type":"Feature","geometry":{"type":"Polygon","coordinates":[[[-120.6500969830462,37.36763787343931],[-120.6479581511652,37.36763431026664],[-120.6479500772993,37.36942109917576],[-120.6480703561354,37.36962678818971],[-120.6479916712235,37.37027959602877],[-120.6486402064793,37.37078462454965],[-120.6489785335947,37.37092729050593],[-120.6495101804112,37.37097660553652],[-120.6500898424026,37.37101174055705],[-120.6500969830462,37.36763787343931]]]},"properties":{"fieldId":11,"block":"Johnston Block 39","mukey":"462964","musym":"AnA","muname":"Atwater sand, 0 to 3 percent slopes","areasymbol":"CA648","dominantComponent":"Atwater","drainageClass":"Well drained","hydrologicGroup":"A","taxOrder":"Alfisols","acres":16.37}},{"type":"Feature","geometry":{"type":"Polygon","coordinates":[[[-120.6501902337663,37.36519051547046],[-120.6496769132511,37.36498474146969],[-120.6489770712399,37.3644342336035],[-120.6484841304275,37.36412997474016],[-120.6479670090984,37.36412439113236],[-120.6469437107446,37.36478244821883],[-120.6469611239379,37.36575488904382],[-120.6476846601248,37.3657548382841],[-120.6476185107603,37.3675057475538],[-120.6494630462512,37.36748330021897],[-120.6495217971795,37.36694654172518],[-120.6490839665358,37.36690270448847],[-120.6490494362569,37.36674368492008],[-120.6491043342945,37.3665195710234],[-120.6495871638946,37.3665053779054],[-120.6496009336206,37.36748606696482],[-120.65015042638,37.36745992172538],[-120.6501902337663,37.36519051547046]]]},"properties":{"fieldId":12,"block":"Johnston Block 40","mukey":"462964","musym":"AnA","muname":"Atwater sand, 0 to 3 percent slopes","areasymbol":"CA648","dominantComponent":"Atwater","drainageClass":"Well drained","hydrologicGroup":"A","taxOrder":"Alfisols","acres":19.593}},{"type":"Feature","geometry":{"type":"Polygon","coordinates":[[[-120.6524939490554,37.36406624173803],[-120.6511017553281,37.36404738600211],[-120.6510981231496,37.36524072034275],[-120.6503498546155,37.36527090666535],[-120.6503213033844,37.36753882846952],[-120.6524900557222,37.36755399837968],[-120.6524939490554,37.36406624173803]]]},"properties":{"fieldId":13,"block":"Johnston Block 35","mukey":"462964","musym":"AnA","muname":"Atwater sand, 0 to 3 percent slopes","areasymbol":"CA648","dominantComponent":"Atwater","drainageClass":"Well drained","hydrologicGroup":"A","taxOrder":"Alfisols","acres":16.083}},{"type":"Feature","geometry":{"type":"Polygon","coordinates":[[[-120.77757115898844,37.40299883661887],[-120.77743387465,37.4029123997667],[-120.777305961361,37.4028107300344],[-120.776745474659,37.4025065981416],[-120.776241704835,37.4022026312481],[-120.77540743157284,37.401634153210686],[-120.77537560439663,37.40317588829106],[-120.775389162445,37.4031812952177],[-120.776494778808,37.4037410571453],[-120.776819881349,37.4039364022061],[-120.777177027807,37.4042118702655],[-120.777319340166,37.404300375856],[-120.77754457616226,37.40439824612099],[-120.7775288243434,37.40369986516001],[-120.7768692909271,37.40367446379832],[-120.7768932772395,37.40322040282986],[-120.7775647954528,37.40326167958663],[-120.77757115898844,37.40299883661887]]]},"properties":{"fieldId":14,"block":"Blue Lupin Block 17","mukey":"2766108","musym":"DfA","muname":"Delhi sand, 0 to 3 percent slopes","areasymbol":"CA648","dominantComponent":"Delhi","drainageClass":"Somewhat excessively drained","hydrologicGroup":"A","taxOrder":"Entisols","acres":6.851}},{"type":"Feature","geometry":{"type":"MultiPolygon","coordinates":[[[[-120.7776197497555,37.40099181691296],[-120.7773122173602,37.40077516788004],[-120.7767540715295,37.40068705920007],[-120.7761317392777,37.40090430373372],[-120.775412138159,37.40140616223433],[-120.77540743157284,37.401634153210686],[-120.776241704835,37.4022026312481],[-120.776745474659,37.4025065981416],[-120.777305961361,37.4028107300344],[-120.77743387465,37.4029123997667],[-120.77757115898844,37.40299883661887],[-120.7776197497555,37.40099181691296]]],[[[-120.7775565196022,37.40492777678314],[-120.77754457616226,37.40439824612099],[-120.777319340166,37.404300375856],[-120.777177027807,37.4042118702655],[-120.776819881349,37.4039364022061],[-120.776494778808,37.4037410571453],[-120.775389162445,37.4031812952177],[-120.77537560439663,37.40317588829106],[-120.7753392425093,37.40493728857744],[-120.7775565196022,37.40492777678314]]]]},"properties":{"fieldId":14,"block":"Blue Lupin Block 17","mukey":"463004","musym":"DgA","muname":"Delhi sand, silty substratum, 0 to 3 percent slopes","areasymbol":"CA648","dominantComponent":"Delhi","drainageClass":"Somewhat excessively drained","hydrologicGroup":"A","taxOrder":"Entisols","acres":13.884}},{"type":"Feature","geometry":{"type":"Polygon","coordinates":[[[-120.7777116604884,37.39807993777359],[-120.7774686157757,37.39807391899747],[-120.77626654493531,37.39825175372619],[-120.776235285559,37.3983066451931],[-120.776104250917,37.3984069587532],[-120.775945002537,37.3984660614076],[-120.775681140506,37.3984537247979],[-120.775707893165,37.3985598880454],[-120.775795539159,37.3986404102867],[-120.776091636016,37.399086544832],[-120.776344968649,37.3994280113838],[-120.776788218646,37.3999283923688],[-120.777157252522,37.4002457051369],[-120.777263272048,37.4003593329804],[-120.777264904787,37.4004679698044],[-120.77732133371033,37.40049114200744],[-120.7776525364646,37.40054533805421],[-120.7777116604884,37.39807993777359]]]},"properties":{"fieldId":15,"block":"Blue Lupin Block 18","mukey":"2766108","musym":"DfA","muname":"Delhi sand, 0 to 3 percent slopes","areasymbol":"CA648","dominantComponent":"Delhi","drainageClass":"Somewhat excessively drained","hydrologicGroup":"A","taxOrder":"Entisols","acres":7.281}},{"type":"Feature","geometry":{"type":"MultiPolygon","coordinates":[[[[-120.77732133371033,37.40049114200744],[-120.777264904787,37.4004679698044],[-120.77716641220181,37.40046579157416],[-120.77732133371033,37.40049114200744]]],[[[-120.77634618543382,37.40052810380296],[-120.776182418266,37.4005886592077],[-120.77610052540825,37.40063197391571],[-120.77634618543382,37.40052810380296]]]]},"properties":{"fieldId":15,"block":"Blue Lupin Block 18","mukey":"463192","musym":"W","muname":"Water","areasymbol":"CA648","dominantComponent":"Water","drainageClass":null,"hydrologicGroup":"D","taxOrder":null,"acres":0.005}},{"type":"Feature","geometry":{"type":"Polygon","coordinates":[[[-120.777264904787,37.4004679698044],[-120.777263272048,37.4003593329804],[-120.777157252522,37.4002457051369],[-120.776788218646,37.3999283923688],[-120.776344968649,37.3994280113838],[-120.776091636016,37.399086544832],[-120.775795539159,37.3986404102867],[-120.775707893165,37.3985598880454],[-120.775681140506,37.3984537247979],[-120.77556845936898,37.39835502871894],[-120.7738301180471,37.39861219946714],[-120.7738479453089,37.39991544106726],[-120.7749547249175,37.39976874369223],[-120.7749274187959,37.40116039986933],[-120.7752844668382,37.40106414611721],[-120.7757598232909,37.40077602978015],[-120.77610052540825,37.40063197391571],[-120.776182418266,37.4005886592077],[-120.77634618543382,37.40052810380296],[-120.7765618952797,37.40043689724236],[-120.7770345722328,37.40044421806659],[-120.77716641220182,37.40046579157416],[-120.777264904787,37.4004679698044]]]},"properties":{"fieldId":15,"block":"Blue Lupin Block 18","mukey":"463004","musym":"DgA","muname":"Delhi sand, silty substratum, 0 to 3 percent slopes","areasymbol":"CA648","dominantComponent":"Delhi","drainageClass":"Somewhat excessively drained","hydrologicGroup":"A","taxOrder":"Entisols","acres":12.198}},{"type":"Feature","geometry":{"type":"Polygon","coordinates":[[[-120.77626654493531,37.39825175372619],[-120.77556845936898,37.39835502871894],[-120.775681140506,37.3984537247979],[-120.775945002537,37.3984660614076],[-120.776104250917,37.3984069587532],[-120.776235285559,37.3983066451931],[-120.77626654493531,37.39825175372619]]]},"properties":{"fieldId":15,"block":"Blue Lupin Block 18","mukey":"2766105","musym":"DfB","muname":"Delhi sand, 3 to 8 percent slopes","areasymbol":"CA648","dominantComponent":"Delhi","drainageClass":"Somewhat excessively drained","hydrologicGroup":"A","taxOrder":"Entisols","acres":0.195}},{"type":"Feature","geometry":{"type":"Polygon","coordinates":[[[-120.7748634018307,37.40119888776701],[-120.77484779567,37.4011710936398],[-120.774062695363,37.4002461254007],[-120.773776614316,37.3999678267138],[-120.773406494385,37.3996507336326],[-120.773243986123,37.3994787062556],[-120.77268461514913,37.39877677710479],[-120.7687054911779,37.39932182538634],[-120.76866121457176,37.40113256427669],[-120.768865164988,37.4009189937478],[-120.768960145825,37.4008409911915],[-120.769122122761,37.4007794835151],[-120.76938723785,37.4007296985846],[-120.769567361955,37.4007318200103],[-120.770012018187,37.4007793990461],[-120.770361545872,37.4008560648139],[-120.770700497583,37.4009571014594],[-120.770814731908,37.4010117602322],[-120.770944765183,37.401137003518],[-120.771653431396,37.4010519017134],[-120.771988189257,37.4010402169353],[-120.772353878391,37.4010811811511],[-120.77275053646711,37.40116048842713],[-120.7730150417712,37.40120314967267],[-120.77338041652212,37.40127113318614],[-120.773750751874,37.4013114205285],[-120.7742204840158,37.40132996542521],[-120.7748624673375,37.40122733852807],[-120.7748634018307,37.40119888776701]]]},"properties":{"fieldId":16,"block":"Blue Lupin Block 19","mukey":"2766108","musym":"DfA","muname":"Delhi sand, 0 to 3 percent slopes","areasymbol":"CA648","dominantComponent":"Delhi","drainageClass":"Somewhat excessively drained","hydrologicGroup":"A","taxOrder":"Entisols","acres":25.243}},{"type":"Feature","geometry":{"type":"Polygon","coordinates":[[[-120.770944765183,37.401137003518],[-120.770814731908,37.4010117602322],[-120.770700497583,37.4009571014594],[-120.770361545872,37.4008560648139],[-120.770012018187,37.4007793990461],[-120.769567361955,37.4007318200103],[-120.76938723785,37.4007296985846],[-120.769122122761,37.4007794835151],[-120.768960145825,37.4008409911915],[-120.768865164988,37.4009189937478],[-120.76866121457176,37.40113256427669],[-120.768632333953,37.40231366789217],[-120.76867627347929,37.402312565970234],[-120.768760977018,37.4022650596057],[-120.76903667037,37.4020800826095],[-120.769380387998,37.4019076911247],[-120.769657180387,37.401722482747],[-120.770133559349,37.4014475983238],[-120.770473010454,37.4012696283131],[-120.770679870777,37.4011978279674],[-120.770944765183,37.401137003518]]]},"properties":{"fieldId":16,"block":"Blue Lupin Block 19","mukey":"463004","musym":"DgA","muname":"Delhi sand, silty substratum, 0 to 3 percent slopes","areasymbol":"CA648","dominantComponent":"Delhi","drainageClass":"Somewhat excessively drained","hydrologicGroup":"A","taxOrder":"Entisols","acres":4.564}},{"type":"Feature","geometry":{"type":"MultiPolygon","coordinates":[[[[-120.7742204840158,37.40132996542521],[-120.773750751874,37.4013114205285],[-120.77338041652212,37.40127113318614],[-120.7736862262496,37.40132803372367],[-120.7740521265179,37.40135687890884],[-120.7742204840158,37.40132996542521]]],[[[-120.77275053646711,37.40116048842713],[-120.772353878391,37.4010811811511],[-120.771988189257,37.4010402169353],[-120.771653431396,37.4010519017134],[-120.770944765183,37.401137003518],[-120.770679870777,37.4011978279674],[-120.770473010454,37.4012696283131],[-120.770133559349,37.4014475983238],[-120.769657180387,37.401722482747],[-120.769380387998,37.4019076911247],[-120.76903667037,37.4020800826095],[-120.768760977018,37.4022650596057],[-120.76867627347929,37.402312565970234],[-120.7688443560427,37.40230835077086],[-120.7698905892875,37.40160677911173],[-120.7706244149871,37.40129034615278],[-120.7721110304771,37.40105734447636],[-120.77275053646711,37.40116048842713]]]]},"properties":{"fieldId":16,"block":"Blue Lupin Block 19","mukey":"463192","musym":"W","muname":"Water","areasymbol":"CA648","dominantComponent":"Water","drainageClass":null,"hydrologicGroup":"D","taxOrder":null,"acres":0.609}},{"type":"Feature","geometry":{"type":"Polygon","coordinates":[[[-120.7749083243662,37.39983121561715],[-120.7738128611296,37.39995886163589],[-120.7737951890466,37.39874560066595],[-120.7735861566363,37.39865328669789],[-120.77268461514913,37.39877677710479],[-120.773243986123,37.3994787062556],[-120.773406494385,37.3996507336326],[-120.773776614316,37.3999678267138],[-120.774062695363,37.4002461254007],[-120.77484779567,37.4011710936398],[-120.7748634018307,37.40119888776701],[-120.7749083243662,37.39983121561715]]]},"properties":{"fieldId":16,"block":"Blue Lupin Block 19","mukey":"463004","musym":"DgA","muname":"Delhi sand, silty substratum, 0 to 3 percent slopes","areasymbol":"CA648","dominantComponent":"Delhi","drainageClass":"Somewhat excessively drained","hydrologicGroup":"A","taxOrder":"Entisols","acres":3.785}},{"type":"Feature","geometry":{"type":"Polygon","coordinates":[[[-120.7686466415547,37.39925380509102],[-120.7653504190316,37.39972306612433],[-120.765356984362,37.40102493446057],[-120.7654924028311,37.40117543721298],[-120.7654328548576,37.40195485009125],[-120.7662092635123,37.40194074232969],[-120.7667283622097,37.40212866726876],[-120.7669324450527,37.40239312676525],[-120.7668534458494,37.40323081706239],[-120.7672792502202,37.40324234882351],[-120.76744087414221,37.40314714277221],[-120.767687792847,37.4029082797037],[-120.767666633253,37.4028046438731],[-120.76792013931,37.4023814158226],[-120.7680815981,37.4020448110208],[-120.768238797145,37.401785746376],[-120.768362276167,37.4015143240284],[-120.768509410298,37.401291528988],[-120.76861645227835,37.40117943795734],[-120.7686466415547,37.39925380509102]]]},"properties":{"fieldId":17,"block":"Blue Lupin Block 21","mukey":"2766108","musym":"DfA","muname":"Delhi sand, 0 to 3 percent slopes","areasymbol":"CA648","dominantComponent":"Delhi","drainageClass":"Somewhat excessively drained","hydrologicGroup":"A","taxOrder":"Entisols","acres":21.89}},{"type":"Feature","geometry":{"type":"Polygon","coordinates":[[[-120.76861645227835,37.40117943795734],[-120.768509410298,37.401291528988],[-120.768362276167,37.4015143240284],[-120.768238797145,37.401785746376],[-120.7680815981,37.4020448110208],[-120.76792013931,37.4023814158226],[-120.767666633253,37.4028046438731],[-120.767687792847,37.4029082797037],[-120.767928819724,37.4028155034301],[-120.768077651483,37.4027327298675],[-120.768181377691,37.4026630623854],[-120.768331088667,37.4025274645175],[-120.768501369028,37.4024106619264],[-120.76859799931295,37.402356466392064],[-120.76861645227835,37.40117943795734]]]},"properties":{"fieldId":17,"block":"Blue Lupin Block 21","mukey":"463004","musym":"DgA","muname":"Delhi sand, silty substratum, 0 to 3 percent slopes","areasymbol":"CA648","dominantComponent":"Delhi","drainageClass":"Somewhat excessively drained","hydrologicGroup":"A","taxOrder":"Entisols","acres":1.597}},{"type":"Feature","geometry":{"type":"Polygon","coordinates":[[[-120.76859799931295,37.402356466392064],[-120.768501369028,37.4024106619264],[-120.768331088667,37.4025274645175],[-120.768181377691,37.4026630623854],[-120.768077651483,37.4027327298675],[-120.767928819724,37.4028155034301],[-120.767687792847,37.4029082797037],[-120.76744087414221,37.40314714277221],[-120.7685962735591,37.40246654416539],[-120.76859799931295,37.402356466392064]]]},"properties":{"fieldId":17,"block":"Blue Lupin Block 21","mukey":"463192","musym":"W","muname":"Water","areasymbol":"CA648","dominantComponent":"Water","drainageClass":null,"hydrologicGroup":"D","taxOrder":null,"acres":0.189}},{"type":"Feature","geometry":{"type":"Polygon","coordinates":[[[-120.7652695045518,37.39975667900551],[-120.7620528325685,37.40016219170208],[-120.7610737335014,37.40020512224303],[-120.7596416056414,37.40039012362703],[-120.7596456382098,37.40317272356682],[-120.7619022666313,37.40319545271725],[-120.7620057366647,37.40145701096157],[-120.7652635667839,37.40151102674403],[-120.7652695045518,37.39975667900551]]]},"properties":{"fieldId":18,"block":"Blue Lupin Block 10","mukey":"2766108","musym":"DfA","muname":"Delhi sand, 0 to 3 percent slopes","areasymbol":"CA648","dominantComponent":"Delhi","drainageClass":"Somewhat excessively drained","hydrologicGroup":"A","taxOrder":"Entisols","acres":28.695}},{"type":"Feature","geometry":{"type":"Polygon","coordinates":[[[-120.7666898773271,37.403746556966006],[-120.7666129260751,37.40308996782239],[-120.7661780670868,37.40291041964666],[-120.7652965013339,37.4027129249743],[-120.764477109918,37.40276680931949],[-120.7645000563792,37.40159936426886],[-120.7620641622426,37.40157722531573],[-120.7619567819776,37.40319776794208],[-120.7596557113747,37.40327861570658],[-120.759583282064,37.40481828424411],[-120.7637259190899,37.40482130118136],[-120.763669139763,37.4046268619999],[-120.763657168588,37.4045120746145],[-120.763686412616,37.4043277374098],[-120.763795729875,37.404205192386],[-120.76388381391,37.4041554163525],[-120.764111772863,37.4040727639227],[-120.764305423092,37.4040314386078],[-120.764942351011,37.4039401097891],[-120.765544456285,37.4037535334778],[-120.765738325281,37.4037093893635],[-120.76607493256,37.4036788675154],[-120.766449373255,37.4036866261239],[-120.766547593354,37.4037012255008],[-120.7666898773271,37.403746556966006]]]},"properties":{"fieldId":19,"block":"Blue Lupin Block 8/9","mukey":"2766108","musym":"DfA","muname":"Delhi sand, 0 to 3 percent slopes","areasymbol":"CA648","dominantComponent":"Delhi","drainageClass":"Somewhat excessively drained","hydrologicGroup":"A","taxOrder":"Entisols","acres":32.382}},{"type":"Feature","geometry":{"type":"Polygon","coordinates":[[[-120.7666923688584,37.40376781604056],[-120.7666898773271,37.403746556966006],[-120.766547593354,37.4037012255008],[-120.766449373255,37.4036866261239],[-120.76607493256,37.4036788675154],[-120.765738325281,37.4037093893635],[-120.765544456285,37.4037535334778],[-120.764942351011,37.4039401097891],[-120.764305423092,37.4040314386078],[-120.764111772863,37.4040727639227],[-120.76388381391,37.4041554163525],[-120.763795729875,37.404205192386],[-120.763686412616,37.4043277374098],[-120.763657168588,37.4045120746145],[-120.763669139763,37.4046268619999],[-120.7637259190899,37.40482130118136],[-120.7657486826136,37.40482277428909],[-120.7666923688584,37.40376781604056]]]},"properties":{"fieldId":19,"block":"Blue Lupin Block 8/9","mukey":"463004","musym":"DgA","muname":"Delhi sand, silty substratum, 0 to 3 percent slopes","areasymbol":"CA648","dominantComponent":"Delhi","drainageClass":"Somewhat excessively drained","hydrologicGroup":"A","taxOrder":"Entisols","acres":5.695}},{"type":"Feature","geometry":{"type":"Polygon","coordinates":[[[-120.5942314782532,37.43308257125052],[-120.5933379954388,37.43302123336296],[-120.5919316402181,37.43306754336435],[-120.5918762882041,37.43648525882291],[-120.5932697640711,37.4364911237931],[-120.5937090724861,37.43634186409912],[-120.5941439669437,37.43636929890914],[-120.5942314782532,37.43308257125052]]]},"properties":{"fieldId":20,"block":"Fagundes Block 64A","mukey":"2766105","musym":"DfB","muname":"Delhi sand, 3 to 8 percent slopes","areasymbol":"CA648","dominantComponent":"Delhi","drainageClass":"Somewhat excessively drained","hydrologicGroup":"A","taxOrder":"Entisols","acres":18.88}},{"type":"Feature","geometry":{"type":"Polygon","coordinates":[[[-120.5918084841752,37.43309932051705],[-120.5894354349434,37.43308884600511],[-120.5894121333754,37.43477507976373],[-120.5894493570178,37.43648756905141],[-120.5917789147502,37.4365200793],[-120.5918084841752,37.43309932051705]]]},"properties":{"fieldId":21,"block":"Fagundes Block 64B","mukey":"2766105","musym":"DfB","muname":"Delhi sand, 3 to 8 percent slopes","areasymbol":"CA648","dominantComponent":"Delhi","drainageClass":"Somewhat excessively drained","hydrologicGroup":"A","taxOrder":"Entisols","acres":19.619}},{"type":"Feature","geometry":{"type":"Polygon","coordinates":[[[-120.5893840029044,37.43472661883266],[-120.5893790935554,37.4330367122031],[-120.5865795889962,37.43300866932452],[-120.5862858094034,37.43325110933441],[-120.5861829671811,37.43473500557415],[-120.5893840029044,37.43472661883266]]]},"properties":{"fieldId":22,"block":"Fagundes Block 65B","mukey":"2766105","musym":"DfB","muname":"Delhi sand, 3 to 8 percent slopes","areasymbol":"CA648","dominantComponent":"Delhi","drainageClass":"Somewhat excessively drained","hydrologicGroup":"A","taxOrder":"Entisols","acres":12.965}},{"type":"Feature","geometry":{"type":"Polygon","coordinates":[[[-120.58942867938,37.4347675570264],[-120.5862672646496,37.43476475603305],[-120.5862578625711,37.43645306217785],[-120.5893870081135,37.43649852025504],[-120.58942867938,37.4347675570264]]]},"properties":{"fieldId":23,"block":"Fagundes Block 65A","mukey":"2766105","musym":"DfB","muname":"Delhi sand, 3 to 8 percent slopes","areasymbol":"CA648","dominantComponent":"Delhi","drainageClass":"Somewhat excessively drained","hydrologicGroup":"A","taxOrder":"Entisols","acres":13.076}},{"type":"Feature","geometry":{"type":"Polygon","coordinates":[[[-120.580710621562,37.434973670792],[-120.580692520416,37.4345399040331],[-120.580669792607,37.4344587660229],[-120.5805726953,37.4342868696634],[-120.58054954673348,37.434256266365026],[-120.58053963864324,37.435609917970176],[-120.580601415078,37.4355020843403],[-120.580667489204,37.4353241140847],[-120.580710621562,37.434973670792]]]},"properties":{"fieldId":24,"block":"Fagundes Block 67A","mukey":"462964","musym":"AnA","muname":"Atwater sand, 0 to 3 percent slopes","areasymbol":"CA648","dominantComponent":"Atwater","drainageClass":"Well drained","hydrologicGroup":"A","taxOrder":"Alfisols","acres":0.395}},{"type":"Feature","geometry":{"type":"Polygon","coordinates":[[[-120.58263498799461,37.43385477710767],[-120.582212088667,37.4337011724842],[-120.581971604817,37.4335589496505],[-120.581530681006,37.4331905284445],[-120.58135815958053,37.433020419896955],[-120.5805586153781,37.43301730052407],[-120.58054954673348,37.434256266365026],[-120.5805726953,37.4342868696634],[-120.580669792607,37.4344587660229],[-120.580692520416,37.4345399040331],[-120.580710621562,37.434973670792],[-120.580667489204,37.4353241140847],[-120.580601415078,37.4355020843403],[-120.58053963864324,37.435609917970176],[-120.5805346984426,37.43628485232954],[-120.5808042632156,37.43645022127101],[-120.5824422759318,37.43647186487706],[-120.5826302164313,37.4363826129812],[-120.58263498799461,37.43385477710767]]]},"properties":{"fieldId":24,"block":"Fagundes Block 67A","mukey":"462965","musym":"AnB","muname":"Atwater sand, 3 to 8 percent slopes","areasymbol":"CA648","dominantComponent":"Atwater","drainageClass":"Well drained","hydrologicGroup":"A","taxOrder":"Alfisols","acres":15.441}},{"type":"Feature","geometry":{"type":"Polygon","coordinates":[[[-120.5826365535194,37.43302540747285],[-120.58135815958053,37.433020419896955],[-120.581530681006,37.4331905284445],[-120.581971604817,37.4335589496505],[-120.582212088667,37.4337011724842],[-120.58263498799461,37.43385477710767],[-120.5826365535194,37.43302540747285]]]},"properties":{"fieldId":24,"block":"Fagundes Block 67A","mukey":"2766105","musym":"DfB","muname":"Delhi sand, 3 to 8 percent slopes","areasymbol":"CA648","dominantComponent":"Delhi","drainageClass":"Somewhat excessively drained","hydrologicGroup":"A","taxOrder":"Entisols","acres":1.545}},{"type":"Feature","geometry":{"type":"Polygon","coordinates":[[[-120.5809014597679,37.43756951464748],[-120.580754292872,37.4375343261781],[-120.580276280167,37.4375307804961],[-120.580040990972,37.4375120849812],[-120.579584534984,37.4374117744006],[-120.579134767953,37.4372823878522],[-120.578824817717,37.4371720681578],[-120.578589447662,37.4370693924329],[-120.578106862121,37.4367243465618],[-120.577855118619,37.4365872139807],[-120.57785271354085,37.43658625209281],[-120.5760659594338,37.43656755314453],[-120.5760618033854,37.4373260286153],[-120.576506017415,37.4372567647056],[-120.576840519347,37.437219866528],[-120.577181825363,37.4372240182227],[-120.577618463627,37.4372832094349],[-120.577913822339,37.4373504001552],[-120.578151334193,37.4374489419787],[-120.57832072514545,37.437545708293285],[-120.5809014597679,37.43756951464748]]]},"properties":{"fieldId":25,"block":"Fagundes Block 67B","mukey":"462962","musym":"AgB","muname":"Atwater loamy sand, deep over hardpan, 3 to 8 percent slopes","areasymbol":"CA648","dominantComponent":"Atwater","drainageClass":"Well drained","hydrologicGroup":"A","taxOrder":"Alfisols","acres":5.049}},{"type":"Feature","geometry":{"type":"Polygon","coordinates":[[[-120.580754292872,37.4375343261781],[-120.580504553736,37.4371798729404],[-120.580410762287,37.4370072918973],[-120.58029548941,37.4366665509729],[-120.58028709564698,37.43661361041078],[-120.5792433683076,37.43660080573589],[-120.57785271354085,37.43658625209281],[-120.577855118619,37.4365872139807],[-120.578106862121,37.4367243465618],[-120.578589447662,37.4370693924329],[-120.578824817717,37.4371720681578],[-120.579134767953,37.4372823878522],[-120.579584534984,37.4374117744006],[-120.580040990972,37.4375120849812],[-120.580276280167,37.4375307804961],[-120.580754292872,37.4375343261781]]]},"properties":{"fieldId":25,"block":"Fagundes Block 67B","mukey":"462964","musym":"AnA","muname":"Atwater sand, 0 to 3 percent slopes","areasymbol":"CA648","dominantComponent":"Atwater","drainageClass":"Well drained","hydrologicGroup":"A","taxOrder":"Alfisols","acres":3.902}},{"type":"Feature","geometry":{"type":"Polygon","coordinates":[[[-120.57832072514546,37.43754570829329],[-120.578151334193,37.4374489419787],[-120.577913822339,37.4373504001552],[-120.577618463627,37.4372832094349],[-120.577181825363,37.4372240182227],[-120.576840519347,37.437219866528],[-120.576506017415,37.4372567647056],[-120.5760618033854,37.4373260286153],[-120.5760607138908,37.4375248604975],[-120.57832072514546,37.43754570829329]]]},"properties":{"fieldId":25,"block":"Fagundes Block 67B","mukey":"2766108","musym":"DfA","muname":"Delhi sand, 0 to 3 percent slopes","areasymbol":"CA648","dominantComponent":"Delhi","drainageClass":"Somewhat excessively drained","hydrologicGroup":"A","taxOrder":"Entisols","acres":1.315}},{"type":"Feature","geometry":{"type":"Polygon","coordinates":[[[-120.5826184018498,37.43758535282432],[-120.5825887891846,37.43656800974497],[-120.5806014549755,37.43661746703966],[-120.58028709564698,37.43661361041078],[-120.58029548941,37.4366665509729],[-120.580410762287,37.4370072918973],[-120.580504553736,37.4371798729404],[-120.580754292872,37.4375343261781],[-120.5809014597679,37.43756951464748],[-120.5826184018498,37.43758535282432]]]},"properties":{"fieldId":25,"block":"Fagundes Block 67B","mukey":"462965","musym":"AnB","muname":"Atwater sand, 3 to 8 percent slopes","areasymbol":"CA648","dominantComponent":"Atwater","drainageClass":"Well drained","hydrologicGroup":"A","taxOrder":"Alfisols","acres":5.049}},{"type":"Feature","geometry":{"type":"Polygon","coordinates":[[[-120.58916530804503,37.44009737229931],[-120.58915688569,37.4400883977602],[-120.588682216891,37.4396309764223],[-120.588173264087,37.4391594206037],[-120.587015043409,37.4381364295903],[-120.586881262662,37.4380515081344],[-120.586701675204,37.4379742212165],[-120.586499018575,37.4379543217833],[-120.586345408862,37.4379851912167],[-120.586167205072,37.4380654562682],[-120.586081751801,37.4381163714596],[-120.585998793872,37.4381990763263],[-120.585855638086,37.4385259214128],[-120.585600295125,37.4392885801332],[-120.585441917657,37.4396471880689],[-120.585326113507,37.4398769905469],[-120.58521968575397,37.44004374169228],[-120.58916530804503,37.44009737229931]]]},"properties":{"fieldId":26,"block":"Fagundes Block 70A","mukey":"2766108","musym":"DfA","muname":"Delhi sand, 0 to 3 percent slopes","areasymbol":"CA648","dominantComponent":"Delhi","drainageClass":"Somewhat excessively drained","hydrologicGroup":"A","taxOrder":"Entisols","acres":11.796}},{"type":"Feature","geometry":{"type":"Polygon","coordinates":[[[-120.5894946422302,37.44010184875219],[-120.5854044838119,37.43664545590173],[-120.584909160196,37.43661419394734],[-120.5848035394428,37.44003808525138],[-120.58521968575397,37.44004374169228],[-120.585326113507,37.4398769905469],[-120.585441917657,37.4396471880689],[-120.585600295125,37.4392885801332],[-120.585855638086,37.4385259214128],[-120.585998793872,37.4381990763263],[-120.586081751801,37.4381163714596],[-120.586167205072,37.4380654562682],[-120.586345408862,37.4379851912167],[-120.586499018575,37.4379543217833],[-120.586701675204,37.4379742212165],[-120.586881262662,37.4380515081344],[-120.587015043409,37.4381364295903],[-120.588173264087,37.4391594206037],[-120.588682216891,37.4396309764223],[-120.58915688569,37.4400883977602],[-120.58916530804503,37.44009737229931],[-120.5894946422302,37.44010184875219]]]},"properties":{"fieldId":26,"block":"Fagundes Block 70A","mukey":"2766105","musym":"DfB","muname":"Delhi sand, 3 to 8 percent slopes","areasymbol":"CA648","dominantComponent":"Delhi","drainageClass":"Somewhat excessively drained","hydrologicGroup":"A","taxOrder":"Entisols","acres":9.664}},{"type":"Feature","geometry":{"type":"Polygon","coordinates":[[[-120.58310573459345,37.436597983344186],[-120.5828161312123,37.43659358333228],[-120.58282734021147,37.43731728536015],[-120.583018221761,37.4367815564934],[-120.58310573459345,37.436597983344186]]]},"properties":{"fieldId":27,"block":"Fagundes Block 70B","mukey":"462965","musym":"AnB","muname":"Atwater sand, 3 to 8 percent slopes","areasymbol":"CA648","dominantComponent":"Atwater","drainageClass":"Well drained","hydrologicGroup":"A","taxOrder":"Alfisols","acres":0.24}},{"type":"Feature","geometry":{"type":"Polygon","coordinates":[[[-120.5848497003635,37.436624479824],[-120.58310573459345,37.436597983344186],[-120.583018221761,37.4367815564934],[-120.58282734021147,37.43731728536015],[-120.5828684288473,37.43997014746077],[-120.5848035394115,37.44004332777447],[-120.5848497003635,37.436624479824]]]},"properties":{"fieldId":27,"block":"Fagundes Block 70B","mukey":"2766105","musym":"DfB","muname":"Delhi sand, 3 to 8 percent slopes","areasymbol":"CA648","dominantComponent":"Delhi","drainageClass":"Somewhat excessively drained","hydrologicGroup":"A","taxOrder":"Entisols","acres":16.152}},{"type":"Feature","geometry":{"type":"Polygon","coordinates":[[[-120.5848936125681,37.44039015044798],[-120.584637119884,37.4405161686971],[-120.584450117591,37.4405844048936],[-120.584286119366,37.4406229584145],[-120.5838756241,37.4406829848816],[-120.583694590771,37.4407444463036],[-120.583473707564,37.4409009182987],[-120.582955156213,37.4414125086707],[-120.58284263857759,37.44148363453776],[-120.5828484045201,37.44165317890828],[-120.584541117106,37.4422675191466],[-120.5848784983568,37.44206296360438],[-120.5848936125681,37.44039015044798]]]},"properties":{"fieldId":28,"block":"Fagundes Block 71","mukey":"2766108","musym":"DfA","muname":"Delhi sand, 0 to 3 percent slopes","areasymbol":"CA648","dominantComponent":"Delhi","drainageClass":"Somewhat excessively drained","hydrologicGroup":"A","taxOrder":"Entisols","acres":5.875}},{"type":"Feature","geometry":{"type":"Polygon","coordinates":[[[-120.5848959144819,37.44013537885455],[-120.5827950012177,37.44008288415317],[-120.58284263857759,37.44148363453776],[-120.582955156213,37.4414125086707],[-120.583473707564,37.4409009182987],[-120.583694590771,37.4407444463036],[-120.5838756241,37.4406829848816],[-120.584286119366,37.4406229584145],[-120.584450117591,37.4405844048936],[-120.584637119884,37.4405161686971],[-120.5848936125681,37.44039015044798],[-120.5848959144819,37.44013537885455]]]},"properties":{"fieldId":28,"block":"Fagundes Block 71","mukey":"2766105","musym":"DfB","muname":"Delhi sand, 3 to 8 percent slopes","areasymbol":"CA648","dominantComponent":"Delhi","drainageClass":"Somewhat excessively drained","hydrologicGroup":"A","taxOrder":"Entisols","acres":3.57}},{"type":"Feature","geometry":{"type":"Polygon","coordinates":[[[-120.581288935445,37.437848286734],[-120.58118354745227,37.43772131791787],[-120.5793219372029,37.43774434938859],[-120.5793291631726,37.43809718385925],[-120.579643455097,37.4381546121741],[-120.580147256847,37.4379866815599],[-120.5803726646,37.4379308111383],[-120.580605269082,37.4379066798407],[-120.581217655221,37.4379027262791],[-120.581288935445,37.437848286734]]]},"properties":{"fieldId":29,"block":"Fagundes Block 72A","mukey":"462962","musym":"AgB","muname":"Atwater loamy sand, deep over hardpan, 3 to 8 percent slopes","areasymbol":"CA648","dominantComponent":"Atwater","drainageClass":"Well drained","hydrologicGroup":"A","taxOrder":"Alfisols","acres":1.214}},{"type":"Feature","geometry":{"type":"Polygon","coordinates":[[[-120.582128644524,37.4390046055812],[-120.582061633512,37.4389077091384],[-120.581985111878,37.4388524707361],[-120.581890126471,37.4388333587924],[-120.581683309892,37.438860463082],[-120.581132959643,37.4389780348977],[-120.580915700303,37.43897776187],[-120.580810109806,37.4389377679638],[-120.580742185856,37.4388835190198],[-120.580540600429,37.4386400169026],[-120.580448350703,37.4385557264991],[-120.580202631197,37.4384155041889],[-120.579643455097,37.4381546121741],[-120.5793291631726,37.43809718385925],[-120.5793545745157,37.43933798587803],[-120.5796781146502,37.43955818811346],[-120.5793215468099,37.43989371356886],[-120.58086311266105,37.43990327551185],[-120.5810146872,37.4398110744383],[-120.58163432976,37.4395250215935],[-120.581848525903,37.4393976272537],[-120.582055304284,37.4391785418817],[-120.582120361515,37.4390847766364],[-120.582128644524,37.4390046055812]]]},"properties":{"fieldId":29,"block":"Fagundes Block 72A","mukey":"2766108","musym":"DfA","muname":"Delhi sand, 0 to 3 percent slopes","areasymbol":"CA648","dominantComponent":"Delhi","drainageClass":"Somewhat excessively drained","hydrologicGroup":"A","taxOrder":"Entisols","acres":7.245}},{"type":"Feature","geometry":{"type":"Polygon","coordinates":[[[-120.58257183791495,37.43770414226515],[-120.58118354745227,37.43772131791787],[-120.581288935445,37.437848286734],[-120.581487328317,37.4379567639766],[-120.581610046799,37.4379950589048],[-120.58184819205,37.4380186989202],[-120.582050851739,37.4380072224242],[-120.582183377113,37.4379733376219],[-120.582296927638,37.4379147653938],[-120.582526499723,37.4377491118229],[-120.58257183791495,37.43770414226515]]]},"properties":{"fieldId":29,"block":"Fagundes Block 72A","mukey":"462965","musym":"AnB","muname":"Atwater sand, 3 to 8 percent slopes","areasymbol":"CA648","dominantComponent":"Atwater","drainageClass":"Well drained","hydrologicGroup":"A","taxOrder":"Alfisols","acres":0.728}},{"type":"Feature","geometry":{"type":"Polygon","coordinates":[[[-120.5827352976448,37.43941665913105],[-120.5827220800053,37.43770228349997],[-120.58257183791495,37.43770414226515],[-120.582526499723,37.4377491118229],[-120.582296927638,37.4379147653938],[-120.582183377113,37.4379733376219],[-120.582050851739,37.4380072224242],[-120.58184819205,37.4380186989202],[-120.581610046799,37.4379950589048],[-120.581487328317,37.4379567639766],[-120.581288935445,37.437848286734],[-120.581217655221,37.4379027262791],[-120.580605269082,37.4379066798407],[-120.5803726646,37.4379308111383],[-120.580147256847,37.4379866815599],[-120.579643455097,37.4381546121741],[-120.580202631197,37.4384155041889],[-120.580448350703,37.4385557264991],[-120.580540600429,37.4386400169026],[-120.580742185856,37.4388835190198],[-120.580810109806,37.4389377679638],[-120.580915700303,37.43897776187],[-120.581132959643,37.4389780348977],[-120.581683309892,37.438860463082],[-120.581890126471,37.4388333587924],[-120.581985111878,37.4388524707361],[-120.582061633512,37.4389077091384],[-120.582128644524,37.4390046055812],[-120.582120361515,37.4390847766364],[-120.582055304284,37.4391785418817],[-120.581848525903,37.4393976272537],[-120.58163432976,37.4395250215935],[-120.5810146872,37.4398110744383],[-120.58086311266105,37.43990327551185],[-120.582708894042,37.43991472442683],[-120.582471179958,37.43966306834551],[-120.5827352976448,37.43941665913105]]]},"properties":{"fieldId":29,"block":"Fagundes Block 72A","mukey":"2766105","musym":"DfB","muname":"Delhi sand, 3 to 8 percent slopes","areasymbol":"CA648","dominantComponent":"Delhi","drainageClass":"Somewhat excessively drained","hydrologicGroup":"A","taxOrder":"Entisols","acres":8.406}},{"type":"Feature","geometry":{"type":"Polygon","coordinates":[[[-120.58084510497095,37.43991422938558],[-120.5792425919487,37.43990937165759],[-120.5792952395359,37.44050705463567],[-120.58034153051668,37.44084782157777],[-120.58036248413,37.4406253661621],[-120.580403974448,37.4404340236137],[-120.580505454943,37.4402071929139],[-120.58061999407,37.4400782691914],[-120.580823815704,37.4399271794053],[-120.58084510497095,37.43991422938558]]]},"properties":{"fieldId":30,"block":"Fagundes Block 72B","mukey":"2766108","musym":"DfA","muname":"Delhi sand, 0 to 3 percent slopes","areasymbol":"CA648","dominantComponent":"Delhi","drainageClass":"Somewhat excessively drained","hydrologicGroup":"A","taxOrder":"Entisols","acres":2.301}},{"type":"Feature","geometry":{"type":"Polygon","coordinates":[[[-120.5827419189521,37.43991997923362],[-120.58084510497095,37.43991422938558],[-120.580823815704,37.4399271794053],[-120.58061999407,37.4400782691914],[-120.580505454943,37.4402071929139],[-120.580403974448,37.4404340236137],[-120.58036248413,37.4406253661621],[-120.58034153051668,37.44084782157777],[-120.5823921187716,37.44151567851429],[-120.5827155036218,37.44138268899793],[-120.5827419189521,37.43991997923362]]]},"properties":{"fieldId":30,"block":"Fagundes Block 72B","mukey":"2766105","musym":"DfB","muname":"Delhi sand, 3 to 8 percent slopes","areasymbol":"CA648","dominantComponent":"Delhi","drainageClass":"Somewhat excessively drained","hydrologicGroup":"A","taxOrder":"Entisols","acres":7.248}},{"type":"Feature","geometry":{"type":"Polygon","coordinates":[[[-120.5792634439641,37.4376766783028],[-120.57853329761502,37.43768136030446],[-120.578871923409,37.4379044269552],[-120.579122797788,37.4380389694584],[-120.57925888015117,37.438081741927974],[-120.5792634439641,37.4376766783028]]]},"properties":{"fieldId":31,"block":"Fagundes Block 73","mukey":"462962","musym":"AgB","muname":"Atwater loamy sand, deep over hardpan, 3 to 8 percent slopes","areasymbol":"CA648","dominantComponent":"Atwater","drainageClass":"Well drained","hydrologicGroup":"A","taxOrder":"Alfisols","acres":0.401}},{"type":"Feature","geometry":{"type":"Polygon","coordinates":[[[-120.57925888015117,37.438081741927974],[-120.579122797788,37.4380389694584],[-120.578871923409,37.4379044269552],[-120.57853329761502,37.43768136030446],[-120.5760483187386,37.43769729502115],[-120.575928579206,37.43951086202342],[-120.5764169144507,37.43974674685343],[-120.5770111179781,37.4398620263508],[-120.5791233477268,37.44051704922595],[-120.5792357475634,37.44013488697079],[-120.57925888015117,37.438081741927974]]]},"properties":{"fieldId":31,"block":"Fagundes Block 73","mukey":"2766108","musym":"DfA","muname":"Delhi sand, 0 to 3 percent slopes","areasymbol":"CA648","dominantComponent":"Delhi","drainageClass":"Somewhat excessively drained","hydrologicGroup":"A","taxOrder":"Entisols","acres":18.352}},{"type":"Feature","geometry":{"type":"Polygon","coordinates":[[[-120.58092189379822,37.44140805321799],[-120.580902984076,37.4413996307074],[-120.580641395509,37.4412230009167],[-120.58050940163044,37.44111081632509],[-120.5788263261838,37.44057305613678],[-120.5782521621021,37.44390054023409],[-120.5807469341461,37.44472835268023],[-120.5808593799907,37.44422086452531],[-120.58092189379822,37.44140805321799]]]},"properties":{"fieldId":32,"block":"Fagundes Block 74A","mukey":"2766108","musym":"DfA","muname":"Delhi sand, 0 to 3 percent slopes","areasymbol":"CA648","dominantComponent":"Delhi","drainageClass":"Somewhat excessively drained","hydrologicGroup":"A","taxOrder":"Entisols","acres":19.979}},{"type":"Feature","geometry":{"type":"Polygon","coordinates":[[[-120.5809255447521,37.44124377839992],[-120.58050940163044,37.44111081632509],[-120.580641395509,37.4412230009167],[-120.580902984076,37.4413996307074],[-120.58092189379822,37.44140805321799],[-120.5809255447521,37.44124377839992]]]},"properties":{"fieldId":32,"block":"Fagundes Block 74A","mukey":"2766105","musym":"DfB","muname":"Delhi sand, 3 to 8 percent slopes","areasymbol":"CA648","dominantComponent":"Delhi","drainageClass":"Somewhat excessively drained","hydrologicGroup":"A","taxOrder":"Entisols","acres":0.094}},{"type":"Feature","geometry":{"type":"Polygon","coordinates":[[[-120.5788338078122,37.44057026379929],[-120.5768014496582,37.43999742384408],[-120.5762526173467,37.43991819759781],[-120.5758867179003,37.44005198019501],[-120.5758225514678,37.4429768043333],[-120.5761785020626,37.44302787242141],[-120.5760746112019,37.44330677977893],[-120.5782454107243,37.44393485936126],[-120.5788338078122,37.44057026379929]]]},"properties":{"fieldId":33,"block":"Fagundes Block 74B","mukey":"2766108","musym":"DfA","muname":"Delhi sand, 0 to 3 percent slopes","areasymbol":"CA648","dominantComponent":"Delhi","drainageClass":"Somewhat excessively drained","hydrologicGroup":"A","taxOrder":"Entisols","acres":22.561}},{"type":"Feature","geometry":{"type":"Polygon","coordinates":[[[-120.5757707350097,37.44382268445965],[-120.5714016148089,37.4438938661918],[-120.5714004632005,37.44495931727577],[-120.5757666750324,37.44490790905053],[-120.5757707350097,37.44382268445965]]]},"properties":{"fieldId":34,"block":"Fagundes Block 76A","mukey":"2766108","musym":"DfA","muname":"Delhi sand, 0 to 3 percent slopes","areasymbol":"CA648","dominantComponent":"Delhi","drainageClass":"Somewhat excessively drained","hydrologicGroup":"A","taxOrder":"Entisols","acres":11.418}},{"type":"Feature","geometry":{"type":"Polygon","coordinates":[[[-120.5757180725115,37.443825802273],[-120.5756844305545,37.44191855972772],[-120.57152191515253,37.4420169501946],[-120.571600630302,37.4422145399032],[-120.571637045791,37.4423989914618],[-120.571652429781,37.4426154827888],[-120.571637260655,37.4431604189499],[-120.571587824123,37.4433737027286],[-120.571532805811,37.4434727663758],[-120.57140086299604,37.4436557639848],[-120.5714088512321,37.44389084709341],[-120.5757180725115,37.443825802273]]]},"properties":{"fieldId":35,"block":"Fagundes Block 76B","mukey":"2766108","musym":"DfA","muname":"Delhi sand, 0 to 3 percent slopes","areasymbol":"CA648","dominantComponent":"Delhi","drainageClass":"Somewhat excessively drained","hydrologicGroup":"A","taxOrder":"Entisols","acres":18.949}},{"type":"Feature","geometry":{"type":"Polygon","coordinates":[[[-120.571652429781,37.4426154827888],[-120.571637045791,37.4423989914618],[-120.571600630302,37.4422145399032],[-120.57152191515253,37.4420169501946],[-120.5713453171669,37.44202112448745],[-120.57140086299604,37.4436557639848],[-120.571532805811,37.4434727663758],[-120.571587824123,37.4433737027286],[-120.571637260655,37.4431604189499],[-120.571652429781,37.4426154827888]]]},"properties":{"fieldId":35,"block":"Fagundes Block 76B","mukey":"2766105","musym":"DfB","muname":"Delhi sand, 3 to 8 percent slopes","areasymbol":"CA648","dominantComponent":"Delhi","drainageClass":"Somewhat excessively drained","hydrologicGroup":"A","taxOrder":"Entisols","acres":0.914}},{"type":"Feature","geometry":{"type":"Polygon","coordinates":[[[-120.583832052022,37.4346766209529],[-120.583815453219,37.4345822149927],[-120.583742735749,37.4344754243386],[-120.583612505072,37.4343556145233],[-120.583335656369,37.4341756908928],[-120.582929251229,37.4339616587941],[-120.58280721026763,37.43391733132726],[-120.5827941763576,37.43396493722967],[-120.5828193607422,37.43652711270437],[-120.58314391876961,37.436530923315196],[-120.58324745779,37.4363916741961],[-120.583635517817,37.4360003053543],[-120.583749888949,37.4358151060145],[-120.583763338613,37.4356351009171],[-120.583674466296,37.435222438505],[-120.583682815115,37.4351145623054],[-120.58381819202,37.434754254784],[-120.583832052022,37.4346766209529]]]},"properties":{"fieldId":36,"block":"Fagundes Block 66","mukey":"462965","musym":"AnB","muname":"Atwater sand, 3 to 8 percent slopes","areasymbol":"CA648","dominantComponent":"Atwater","drainageClass":"Well drained","hydrologicGroup":"A","taxOrder":"Alfisols","acres":4.92}},{"type":"Feature","geometry":{"type":"Polygon","coordinates":[[[-120.5860283438343,37.43302202144262],[-120.5854289618227,37.43301411753642],[-120.5849426683511,37.43301703781162],[-120.5828921811236,37.43312053467888],[-120.582884914881,37.43363351793342],[-120.58280721026763,37.43391733132726],[-120.582929251229,37.4339616587941],[-120.583335656369,37.4341756908928],[-120.583612505072,37.4343556145233],[-120.583742735749,37.4344754243386],[-120.583815453219,37.4345822149927],[-120.583832052022,37.4346766209529],[-120.58381819202,37.434754254784],[-120.583682815115,37.4351145623054],[-120.583674466296,37.435222438505],[-120.583763338613,37.4356351009171],[-120.583749888949,37.4358151060145],[-120.583635517817,37.4360003053543],[-120.58324745779,37.4363916741961],[-120.58314391876961,37.436530923315196],[-120.5852988205616,37.43655622385133],[-120.5855456004236,37.43637162562759],[-120.586021825828,37.43634264656122],[-120.5860283438343,37.43302202144262]]]},"properties":{"fieldId":36,"block":"Fagundes Block 66","mukey":"2766105","musym":"DfB","muname":"Delhi sand, 3 to 8 percent slopes","areasymbol":"CA648","dominantComponent":"Delhi","drainageClass":"Somewhat excessively drained","hydrologicGroup":"A","taxOrder":"Entisols","acres":21.991}},{"type":"Feature","geometry":{"type":"Polygon","coordinates":[[[-120.5917795310338,37.43654898980333],[-120.5863079665349,37.43649820026462],[-120.5863139332497,37.43707051395711],[-120.5897337369132,37.44001738493868],[-120.5917671554351,37.44007765792249],[-120.5917795310338,37.43654898980333]]]},"properties":{"fieldId":37,"block":"Fagundes Block 68","mukey":"2766105","musym":"DfB","muname":"Delhi sand, 3 to 8 percent slopes","areasymbol":"CA648","dominantComponent":"Delhi","drainageClass":"Somewhat excessively drained","hydrologicGroup":"A","taxOrder":"Entisols","acres":34.279}},{"type":"Feature","geometry":{"type":"Polygon","coordinates":[[[-120.5757826158831,37.44703325020982],[-120.5757278817733,37.44500120948697],[-120.5714271669254,37.4450148939174],[-120.5713320762851,37.44720563783469],[-120.5716571995732,37.44742495947659],[-120.5756661488979,37.4473632045679],[-120.5757826158831,37.44703325020982]]]},"properties":{"fieldId":38,"block":"Fagundes Block 75","mukey":"2766108","musym":"DfA","muname":"Delhi sand, 0 to 3 percent slopes","areasymbol":"CA648","dominantComponent":"Delhi","drainageClass":"Somewhat excessively drained","hydrologicGroup":"A","taxOrder":"Entisols","acres":25.309}},{"type":"Feature","geometry":{"type":"Polygon","coordinates":[[[-120.5757431711739,37.44189450148148],[-120.5757077532028,37.43991519485589],[-120.5749987337412,37.43983341879289],[-120.5741619479733,37.43957497227848],[-120.5732510670683,37.43933977557064],[-120.5724476179197,37.43906826303042],[-120.5717435365447,37.43887918646556],[-120.571356228829,37.43891500247487],[-120.57144442226046,37.44186605701846],[-120.57148205842319,37.44193047656166],[-120.5757431711739,37.44189450148148]]]},"properties":{"fieldId":39,"block":"Fagundes Block 77","mukey":"2766108","musym":"DfA","muname":"Delhi sand, 0 to 3 percent slopes","areasymbol":"CA648","dominantComponent":"Delhi","drainageClass":"Somewhat excessively drained","hydrologicGroup":"A","taxOrder":"Entisols","acres":26.363}},{"type":"Feature","geometry":{"type":"Polygon","coordinates":[[[-120.57148205842319,37.44193047656166],[-120.57144442226046,37.44186605701846],[-120.571446356472,37.44193077798071],[-120.57148205842319,37.44193047656166]]]},"properties":{"fieldId":39,"block":"Fagundes Block 77","mukey":"2766105","musym":"DfB","muname":"Delhi sand, 3 to 8 percent slopes","areasymbol":"CA648","dominantComponent":"Delhi","drainageClass":"Somewhat excessively drained","hydrologicGroup":"A","taxOrder":"Entisols","acres":0.003}},{"type":"Feature","geometry":{"type":"Polygon","coordinates":[[[-120.5884074696099,37.42938016495698],[-120.58774682762287,37.429364680251744],[-120.587747029742,37.4294772622611],[-120.587777639586,37.4296758411102],[-120.587913204109,37.4301148377296],[-120.587962862171,37.4301848629174],[-120.588175608799,37.430402044127],[-120.58840633163261,37.43045860088253],[-120.5884074696099,37.42938016495698]]]},"properties":{"fieldId":40,"block":"Fagundes Block 61","mukey":"2766108","musym":"DfA","muname":"Delhi sand, 0 to 3 percent slopes","areasymbol":"CA648","dominantComponent":"Delhi","drainageClass":"Somewhat excessively drained","hydrologicGroup":"A","taxOrder":"Entisols","acres":1.353}},{"type":"Feature","geometry":{"type":"Polygon","coordinates":[[[-120.58840633163261,37.43045860088253],[-120.588175608799,37.430402044127],[-120.587985995171,37.4307135925001],[-120.587866195988,37.4308408489014],[-120.587493080768,37.4311193067342],[-120.58712596906,37.4313143696165],[-120.586724442297,37.4314565570688],[-120.58639861278218,37.431537869136385],[-120.5863025957145,37.4321846121592],[-120.5863024813885,37.43275448229738],[-120.5880257831922,37.43276580650305],[-120.5884039807575,37.43268647326362],[-120.58840633163261,37.43045860088253]]]},"properties":{"fieldId":40,"block":"Fagundes Block 61","mukey":"2766105","musym":"DfB","muname":"Delhi sand, 3 to 8 percent slopes","areasymbol":"CA648","dominantComponent":"Delhi","drainageClass":"Somewhat excessively drained","hydrologicGroup":"A","taxOrder":"Entisols","acres":8.407}},{"type":"Feature","geometry":{"type":"Polygon","coordinates":[[[-120.588175608799,37.430402044127],[-120.587962862171,37.4301848629174],[-120.587913204109,37.4301148377296],[-120.587777639586,37.4296758411102],[-120.587747029742,37.4294772622611],[-120.58774682762287,37.429364680251744],[-120.5867554804247,37.42934144418825],[-120.5864238295443,37.42950882984135],[-120.5864274289218,37.43134377200663],[-120.58639861278218,37.431537869136385],[-120.586724442297,37.4314565570688],[-120.58712596906,37.4313143696165],[-120.587493080768,37.4311193067342],[-120.587866195988,37.4308408489014],[-120.587985995171,37.4307135925001],[-120.588175608799,37.430402044127]]]},"properties":{"fieldId":40,"block":"Fagundes Block 61","mukey":"462962","musym":"AgB","muname":"Atwater loamy sand, deep over hardpan, 3 to 8 percent slopes","areasymbol":"CA648","dominantComponent":"Atwater","drainageClass":"Well drained","hydrologicGroup":"A","taxOrder":"Alfisols","acres":6.82}},{"type":"Feature","geometry":{"type":"MultiPolygon","coordinates":[[[[-120.58495196621841,37.428652628487264],[-120.5837968297003,37.428568788531],[-120.5833995658518,37.42868008057444],[-120.5833978770788,37.4288025937257],[-120.583499098439,37.4288473654598],[-120.583768350089,37.4289107093375],[-120.584107022371,37.4289246092078],[-120.584415468658,37.4288875361981],[-120.584610484267,37.4288360958],[-120.584786007214,37.4287619216513],[-120.58495196621841,37.428652628487264]]],[[[-120.58366329876,37.4305745240998],[-120.583633995848,37.4303867523483],[-120.58356249456,37.4301754081777],[-120.583393233338,37.4299123006263],[-120.58338273525654,37.429901067200284],[-120.58337056,37.43078432920913],[-120.583523663541,37.4307861837543],[-120.583605153259,37.4307305509941],[-120.58366329876,37.4305745240998]]]]},"properties":{"fieldId":41,"block":"Fagundes Block 62","mukey":"2766105","musym":"DfB","muname":"Delhi sand, 3 to 8 percent slopes","areasymbol":"CA648","dominantComponent":"Delhi","drainageClass":"Somewhat excessively drained","hydrologicGroup":"A","taxOrder":"Entisols","acres":1.353}},{"type":"Feature","geometry":{"type":"Polygon","coordinates":[[[-120.5862940431312,37.43268327023043],[-120.58629137964594,37.43156462959737],[-120.586138957357,37.4316026671934],[-120.585711189641,37.4316847464951],[-120.584812348598,37.4318255568942],[-120.584245708247,37.4319262197666],[-120.583978804044,37.4319500767866],[-120.583606707905,37.4319246305771],[-120.583405724765,37.4318886916787],[-120.58335551079331,37.43187608382614],[-120.583352275592,37.43211078363733],[-120.5837616331965,37.43217579905597],[-120.583776308145,37.43240483567317],[-120.584082999514,37.43245925348216],[-120.5840490168054,37.43278345238735],[-120.5859454269649,37.43282048192203],[-120.5862940431312,37.43268327023043]]]},"properties":{"fieldId":41,"block":"Fagundes Block 62","mukey":"2766105","musym":"DfB","muname":"Delhi sand, 3 to 8 percent slopes","areasymbol":"CA648","dominantComponent":"Delhi","drainageClass":"Somewhat excessively drained","hydrologicGroup":"A","taxOrder":"Entisols","acres":6.146}},{"type":"Feature","geometry":{"type":"Polygon","coordinates":[[[-120.58629137964594,37.43156462959737],[-120.5862861720332,37.42937747755654],[-120.5859788879982,37.42932511687802],[-120.585943247579,37.4296918765821],[-120.585953649231,37.429827256057],[-120.586019063704,37.4299752474911],[-120.586047592532,37.4301816408723],[-120.586003588822,37.4304178161738],[-120.585948891183,37.4305177493794],[-120.58576005308,37.4307479045756],[-120.584863229605,37.4316341113454],[-120.584782544943,37.4317514215302],[-120.584812348598,37.4318255568942],[-120.585711189641,37.4316847464951],[-120.586138957357,37.4316026671934],[-120.58629137964594,37.43156462959737]]]},"properties":{"fieldId":41,"block":"Fagundes Block 62","mukey":"462962","musym":"AgB","muname":"Atwater loamy sand, deep over hardpan, 3 to 8 percent slopes","areasymbol":"CA648","dominantComponent":"Atwater","drainageClass":"Well drained","hydrologicGroup":"A","taxOrder":"Alfisols","acres":3.453}},{"type":"Feature","geometry":{"type":"Polygon","coordinates":[[[-120.586047592532,37.4301816408723],[-120.586019063704,37.4299752474911],[-120.585953649231,37.429827256057],[-120.585943247579,37.4296918765821],[-120.5859788879982,37.42932511687802],[-120.5857996650559,37.42929457759255],[-120.5850214544874,37.42932571654512],[-120.5849520795525,37.42865263671307],[-120.58495196621841,37.428652628487264],[-120.584786007214,37.4287619216513],[-120.584610484267,37.4288360958],[-120.584415468658,37.4288875361981],[-120.584107022371,37.4289246092078],[-120.583768350089,37.4289107093375],[-120.583499098439,37.4288473654598],[-120.5833978770788,37.4288025937257],[-120.58338273525654,37.429901067200284],[-120.583393233338,37.4299123006263],[-120.58356249456,37.4301754081777],[-120.583633995848,37.4303867523483],[-120.58366329876,37.4305745240998],[-120.583605153259,37.4307305509941],[-120.583523663541,37.4307861837543],[-120.58337056,37.43078432920913],[-120.58335551079331,37.43187608382614],[-120.583405724765,37.4318886916787],[-120.583606707905,37.4319246305771],[-120.583978804044,37.4319500767866],[-120.584245708247,37.4319262197666],[-120.584812348598,37.4318255568942],[-120.584782544943,37.4317514215302],[-120.584863229605,37.4316341113454],[-120.58576005308,37.4307479045756],[-120.585948891183,37.4305177493794],[-120.586003588822,37.4304178161738],[-120.586047592532,37.4301816408723]]]},"properties":{"fieldId":41,"block":"Fagundes Block 62","mukey":"2766108","musym":"DfA","muname":"Delhi sand, 0 to 3 percent slopes","areasymbol":"CA648","dominantComponent":"Delhi","drainageClass":"Somewhat excessively drained","hydrologicGroup":"A","taxOrder":"Entisols","acres":15.541}},{"type":"Feature","geometry":{"type":"Polygon","coordinates":[[[-120.5834094977346,37.42868149649404],[-120.5822465630625,37.42780777803443],[-120.581511174081,37.42787828721146],[-120.5809384048712,37.42787257051488],[-120.5805251395971,37.42824425789874],[-120.5805245226745,37.42881241129604],[-120.5807356909747,37.42920136391977],[-120.58072535645796,37.42953544417683],[-120.581044699826,37.4297236092751],[-120.581822428294,37.430110936791],[-120.582108741793,37.4302002908646],[-120.582224796137,37.4302538072553],[-120.582725293297,37.4306274317964],[-120.582948353701,37.4307391054803],[-120.583182386732,37.4307820498639],[-120.58336266328618,37.43078423355613],[-120.58338234346611,37.429900647966655],[-120.582986293817,37.4294768567771],[-120.582799750101,37.4291905580995],[-120.582674703845,37.4289395292799],[-120.582455657412,37.4284245851847],[-120.582452626217,37.4282830661641],[-120.582486986206,37.4282067278209],[-120.582648005595,37.4281734027542],[-120.582751637574,37.4281971830608],[-120.582909230847,37.4283316350482],[-120.583213739337,37.4286701299618],[-120.583382526162,37.4287958037837],[-120.58340671347158,37.428806502195485],[-120.5834094977346,37.42868149649404]]]},"properties":{"fieldId":42,"block":"Fagundes Block 63","mukey":"2766105","musym":"DfB","muname":"Delhi sand, 3 to 8 percent slopes","areasymbol":"CA648","dominantComponent":"Delhi","drainageClass":"Somewhat excessively drained","hydrologicGroup":"A","taxOrder":"Entisols","acres":12.581}},{"type":"Feature","geometry":{"type":"MultiPolygon","coordinates":[[[[-120.582121486334,37.430722855612],[-120.582095874125,37.4306192389527],[-120.582038054336,37.4304936738943],[-120.581822428294,37.430110936791],[-120.581044699826,37.4297236092751],[-120.58072535645796,37.42953544417683],[-120.58065814968671,37.43170801363374],[-120.580658203712,37.4317068655358],[-120.580722004147,37.4315256727267],[-120.580860125329,37.431306024384],[-120.580934643921,37.4312472214369],[-120.581057038425,37.4312043555974],[-120.581960560789,37.4309832238124],[-120.582035370013,37.4309252828171],[-120.582098797872,37.4308336990995],[-120.582121486334,37.430722855612]]],[[[-120.580684219073,37.4323559050951],[-120.5806506205477,37.43195140543989],[-120.5806374321076,37.4323777434656],[-120.580684219073,37.4323559050951]]]]},"properties":{"fieldId":42,"block":"Fagundes Block 63","mukey":"462964","musym":"AnA","muname":"Atwater sand, 0 to 3 percent slopes","areasymbol":"CA648","dominantComponent":"Atwater","drainageClass":"Well drained","hydrologicGroup":"A","taxOrder":"Alfisols","acres":4.166}},{"type":"Feature","geometry":{"type":"Polygon","coordinates":[[[-120.5810927717446,37.43275874376496],[-120.580684219073,37.4323559050951],[-120.5806374321076,37.4323777434656],[-120.5806261214311,37.43274337969304],[-120.5810927717446,37.43275874376496]]]},"properties":{"fieldId":42,"block":"Fagundes Block 63","mukey":"462965","musym":"AnB","muname":"Atwater sand, 3 to 8 percent slopes","areasymbol":"CA648","dominantComponent":"Atwater","drainageClass":"Well drained","hydrologicGroup":"A","taxOrder":"Alfisols","acres":0.241}},{"type":"Feature","geometry":{"type":"Polygon","coordinates":[[[-120.58332417906087,37.43186821697454],[-120.583212268944,37.4318401182959],[-120.583001041431,37.4317564554212],[-120.582754107811,37.4316091086654],[-120.582480777366,37.4314081507492],[-120.581960560789,37.4309832238124],[-120.581057038425,37.4312043555974],[-120.580934643921,37.4312472214369],[-120.580860125329,37.431306024384],[-120.580722004147,37.4315256727267],[-120.580658203712,37.4317068655358],[-120.58065814968671,37.431708013633674],[-120.5806506205477,37.431951405439904],[-120.580684219073,37.4323559050951],[-120.5810927717446,37.43275874376496],[-120.5828387072669,37.43281622723415],[-120.5832183683101,37.43271642782705],[-120.5832574594015,37.43215184317162],[-120.58332417906087,37.43186821697454]]]},"properties":{"fieldId":42,"block":"Fagundes Block 63","mukey":"2766105","musym":"DfB","muname":"Delhi sand, 3 to 8 percent slopes","areasymbol":"CA648","dominantComponent":"Delhi","drainageClass":"Somewhat excessively drained","hydrologicGroup":"A","taxOrder":"Entisols","acres":8.949}},{"type":"Feature","geometry":{"type":"MultiPolygon","coordinates":[[[[-120.58340671347158,37.428806502195485],[-120.583382526162,37.4287958037837],[-120.583213739337,37.4286701299618],[-120.582909230847,37.4283316350482],[-120.582751637574,37.4281971830608],[-120.582648005595,37.4281734027542],[-120.582486986206,37.4282067278209],[-120.582452626217,37.4282830661641],[-120.582455657412,37.4284245851847],[-120.582674703845,37.4289395292799],[-120.582799750101,37.4291905580995],[-120.582986293817,37.4294768567771],[-120.58338234346611,37.429900647966655],[-120.58340671347158,37.428806502195485]]],[[[-120.58336266328618,37.43078423355613],[-120.583182386732,37.4307820498639],[-120.582948353701,37.4307391054803],[-120.582725293297,37.4306274317964],[-120.582224796137,37.4302538072553],[-120.582108741793,37.4302002908646],[-120.581822428294,37.430110936791],[-120.582038054336,37.4304936738943],[-120.582095874125,37.4306192389527],[-120.582121486334,37.430722855612],[-120.582098797872,37.4308336990995],[-120.582035370013,37.4309252828171],[-120.581960560789,37.4309832238124],[-120.582480777366,37.4314081507492],[-120.582754107811,37.4316091086654],[-120.583001041431,37.4317564554212],[-120.583212268944,37.4318401182959],[-120.58332417906087,37.43186821697454],[-120.5833400194462,37.43180087927689],[-120.58336266328618,37.43078423355613]]]]},"properties":{"fieldId":42,"block":"Fagundes Block 63","mukey":"2766108","musym":"DfA","muname":"Delhi sand, 0 to 3 percent slopes","areasymbol":"CA648","dominantComponent":"Delhi","drainageClass":"Somewhat excessively drained","hydrologicGroup":"A","taxOrder":"Entisols","acres":5.206}},{"type":"Feature","geometry":{"type":"Polygon","coordinates":[[[-120.5918765628275,37.42963150774129],[-120.5916292607166,37.42936939882044],[-120.5885784913467,37.42937887921684],[-120.5885591352852,37.430496057421564],[-120.588955465122,37.430593209183],[-120.58935236983,37.430660577571],[-120.589859888758,37.4306921228452],[-120.591055606455,37.4307067245987],[-120.59148433522,37.4307425756062],[-120.591603511219,37.4307843616991],[-120.591723271137,37.4308906404082],[-120.591801024433,37.430984385787],[-120.5918528875858,37.43109082140387],[-120.5918765628275,37.42963150774129]]]},"properties":{"fieldId":43,"block":"Fagundes Block 60","mukey":"2766108","musym":"DfA","muname":"Delhi sand, 0 to 3 percent slopes","areasymbol":"CA648","dominantComponent":"Delhi","drainageClass":"Somewhat excessively drained","hydrologicGroup":"A","taxOrder":"Entisols","acres":10.494}},{"type":"Feature","geometry":{"type":"Polygon","coordinates":[[[-120.5918528875858,37.43109082140387],[-120.591801024433,37.430984385787],[-120.591723271137,37.4308906404082],[-120.591603511219,37.4307843616991],[-120.59148433522,37.4307425756062],[-120.591055606455,37.4307067245987],[-120.589859888758,37.4306921228452],[-120.58935236983,37.430660577571],[-120.588955465122,37.430593209183],[-120.5885591352852,37.430496057421564],[-120.5885489792007,37.43108223846097],[-120.5887167850227,37.43112349635295],[-120.5887044482379,37.43134606772293],[-120.5885026339625,37.43134633571334],[-120.5885170369783,37.43282319841224],[-120.5918248804073,37.43281715048488],[-120.5918528875858,37.43109082140387]]]},"properties":{"fieldId":43,"block":"Fagundes Block 60","mukey":"2766105","musym":"DfB","muname":"Delhi sand, 3 to 8 percent slopes","areasymbol":"CA648","dominantComponent":"Delhi","drainageClass":"Somewhat excessively drained","hydrologicGroup":"A","taxOrder":"Entisols","acres":17.096}},{"type":"Feature","geometry":{"type":"Polygon","coordinates":[[[-120.59287193049397,37.47326795517475],[-120.592834769152,37.47303637000764],[-120.59273096126209,37.4730111274071],[-120.59287193049397,37.47326795517475]]]},"properties":{"fieldId":44,"block":"Fagundes Mello","mukey":"2766115","musym":"DdA","muname":"Delhi loamy sand, 0 to 3 percent slopes, MLRA 17","areasymbol":"CA648","dominantComponent":"Delhi","drainageClass":"Somewhat excessively drained","hydrologicGroup":"A","taxOrder":"Entisols","acres":0.028}},{"type":"Feature","geometry":{"type":"Polygon","coordinates":[[[-120.5934483446738,37.47528099242804],[-120.5933007969337,37.47484085585876],[-120.5931772874776,37.47445576829244],[-120.5930413352856,37.47393332549611],[-120.5929135079537,37.47352706107482],[-120.59287193049397,37.47326795517475],[-120.59273096126209,37.4730111274071],[-120.592118997156,37.47286231824154],[-120.5913837690788,37.47284304756204],[-120.5904869211841,37.47297350693662],[-120.5893363409972,37.47329539961338],[-120.5889512177337,37.47386973598421],[-120.5878205753551,37.47456775625014],[-120.5880568507142,37.47658237622651],[-120.5884423000157,37.47658190907115],[-120.5925503861336,37.47559317310607],[-120.5925885659627,37.4753639881107],[-120.5929473217961,37.47534556594067],[-120.5931635579265,37.47544332138416],[-120.5934483446738,37.47528099242804]]]},"properties":{"fieldId":44,"block":"Fagundes Mello","mukey":"463167","musym":"SnA","muname":"Snelling sandy loam, 0 to 3 percent slopes","areasymbol":"CA648","dominantComponent":"Snelling","drainageClass":"Well drained","hydrologicGroup":"C","taxOrder":"Alfisols","acres":35.178}},{"type":"Feature","geometry":{"type":"Polygon","coordinates":[[[-120.585727053777,37.40216469968808],[-120.5856776985036,37.40048482225149],[-120.5846480311127,37.40038467490051],[-120.584515633279,37.4005461614761],[-120.584470453925,37.4006672043243],[-120.58445529879,37.400796799042],[-120.584524919366,37.4014072828577],[-120.584519815393,37.4015421807169],[-120.584490914591,37.4016450841725],[-120.584400563728,37.4017930175817],[-120.584195287213,37.4020441280136],[-120.58412401839469,37.40211480028741],[-120.5848448519928,37.40210827783245],[-120.585727053777,37.40216469968808]]]},"properties":{"fieldId":45,"block":"Fagundes Angel Ranch","mukey":"463156","musym":"ScA","muname":"San Joaquin sandy loam, 0 to 3 percent slopes","areasymbol":"CA648","dominantComponent":"San Joaquin","drainageClass":"Moderately well drained","hydrologicGroup":"D","taxOrder":"Alfisols","acres":5.156}},{"type":"Feature","geometry":{"type":"Polygon","coordinates":[[[-120.581555529691,37.4015079434697],[-120.5815507124,37.4014064840115],[-120.58145623843,37.4013189710335],[-120.581366328792,37.4012868181284],[-120.581161667357,37.4012571922415],[-120.58114019953638,37.401258110977636],[-120.5811243177676,37.40199183775227],[-120.58115655658479,37.40200744554666],[-120.581205020061,37.4019331076308],[-120.581441458821,37.4017392421215],[-120.581530940389,37.4015887229842],[-120.581555529691,37.4015079434697]]]},"properties":{"fieldId":45,"block":"Fagundes Angel Ranch","mukey":"3251999","musym":"AaA","muname":"Alamo clay, 0 to 1 percent slopes","areasymbol":"CA648","dominantComponent":"Alamo","drainageClass":"Poorly drained","hydrologicGroup":"D","taxOrder":"Mollisols","acres":0.523}},{"type":"Feature","geometry":{"type":"Polygon","coordinates":[[[-120.5846480311127,37.40038467490051],[-120.5844873606384,37.40036904779361],[-120.5811593550937,37.40037313742697],[-120.58114019953638,37.401258110977636],[-120.581161667357,37.4012571922415],[-120.581366328792,37.4012868181284],[-120.58145623843,37.4013189710335],[-120.5815507124,37.4014064840115],[-120.581555529691,37.4015079434697],[-120.581530940389,37.4015887229842],[-120.581441458821,37.4017392421215],[-120.581205020061,37.4019331076308],[-120.58115655658479,37.40200744554666],[-120.5814558353035,37.40215233549961],[-120.5833946230931,37.40212140021284],[-120.58412401839469,37.40211480028741],[-120.584195287213,37.4020441280136],[-120.584400563728,37.4017930175817],[-120.584490914591,37.4016450841725],[-120.584519815393,37.4015421807169],[-120.584524919366,37.4014072828577],[-120.58445529879,37.400796799042],[-120.584470453925,37.4006672043243],[-120.584515633279,37.4005461614761],[-120.5846480311127,37.40038467490051]]]},"properties":{"fieldId":45,"block":"Fagundes Angel Ranch","mukey":"3251995","musym":"ScB","muname":"San Joaquin sandy loam, 3 to 8 percent slopes","areasymbol":"CA648","dominantComponent":"San Joaquin","drainageClass":"Moderately well drained","hydrologicGroup":"D","taxOrder":"Alfisols","acres":13.615}}]}